name,city,country,latitude,longitude
(512) Brewing Company,Austin,United States,30.2234,-97.7697
21st Amendment Brewery Cafe,San Francisco,United States,37.7825,-122.393
3 Fonteinen Brouwerij Ambachtelijke Geuzestekerij,Beersel,Belgium,50.7668,4.3081
Aass Brewery,Drammen,Norway,59.7451,10.2135
Abbaye de Leffe,Dinant,Belgium,50.2606,4.9122
Abbaye de Maredsous,Dene,Belgium,50.3093,4.7646
Abbaye Notre Dame du St Remy,Rochefort,Belgium,50.1999,5.2277
Abbey Wright Brewing/Valley Inn,Williamsport,United States,41.2225,-77.0369
Aberdeen Brewing,Valparaiso,United States,41.4392,-87.1078
Abita Brewing Company,Abita Springs,United States,30.5049,-89.944
Adnams & Co.,Southwold,United Kingdom,52.3277,1.6802
Affligem Brouwerij,Opwijk,Belgium,50.9699,4.1892
Agassiz Brewing,Winnipeg,Canada,49.7652,-97.1539
Aksarben Brewing (BOP),Omaha,United States,41.2603,-96.0903
Aktienbrauerei Kaufbeuren,Kaufbeuren,Germany,47.8781,10.6161
Alameda Brewhouse,Portland,United States,45.5484,-122.619
Alaskan Brewing,Juneau,United States,58.3573,-134.49
Alaus Darykla Kalnapilis,Panevys,Lithuania,0,0
Aldaris,Rga,Latvia,0,0
Ale Asylum,Madison,United States,43.1257,-89.3253
AleSmith Brewing,San Diego,United States,32.892,-117.144
Ali`i Brewing,Honolulu,United States,21.3069,-157.858
Allagash Brewing,Portland,United States,43.7028,-70.3166
Allentown Brew Works,Allentown,United States,40.6016,-75.474
Allguer Brauhaus AG Kempten,Kempten,Germany,47.7487,10.5694
"Allguer Brauhaus AG Kempten, Brausttte Leuterschach",Marktoberdorf,Germany,0,0
Alltech's Lexington Brewing Company,Lexington,United States,38.0501,-84.5088
Alpine Beer Company,Alpine,United States,32.8355,-116.765
Alpirsbacher Klosterbru,Alpirsbach,Germany,48.3457,8.4031
Alvinne Picobrouwerij,Ingelmunster,Belgium,50.919,3.2632
America's Brewing,Aurora,United States,41.7605,-88.309
American River Brewing,Auburn,United States,38.8966,-121.077
Amerisports Brew Pub,Kansas City,United States,39.1551,-94.482
Amherst Brewing Company,Amherst,United States,42.3763,-72.5199
"Amicas Pizza, Microbrews and More",Salida,United States,38.535,-105.992
Amstel Brouwerij,Amsterdam,Netherlands,52.3738,4.8909
Anacortes Brewing,Anacortes,United States,48.5193,-122.613
Anchor Brewing,San Francisco,United States,37.7635,-122.401
Andechser Klosterbrauerei,Andechs,Germany,47.9775,11.185
Anderson Valley Brewing,Boonville,United States,39.0014,-123.356
Andrew's Brewing,Lincolnville,United States,44.3516,-69.1401
Angelic Brewing,Madison,United States,43.0785,-89.382
Anheuser-Busch,Saint Louis,United States,38.5983,-90.209
Appalachian Brewing Company,Harrisburg,United States,40.2659,-76.8753
Appleton Brewing,Appleton,United States,44.2619,-88.4154
Arcadia Brewing,Battle Creek,United States,42.322,-85.1851
Arcobrau Grafliches Brauhaus,Moos,Germany,0,0
Arthur Guinness & Son,Dublin,Ireland,53.3433,-6.2846
Asahi Breweries,Tokyo,Japan,0,0
Asheville Pizza and Brewing Co.,Asheville,United States,35.6221,-82.5536
ateck Pivovar,atec,Czech Republic,0,0
Athenian Brewery,Athens,Greece,0,0
Atlanta Brewing Company,Atlanta,United States,33.818,-84.4353
Atlantic Brewing Company,Bar Harbor,United States,44.3996,-68.334
Atwater Block Brewing,Detroit,United States,42.3372,-83.0186
August Schell Brewing,New Ulm,United States,44.2896,-94.449
Augusta Brewing,Augusta,United States,38.5702,-90.8802
Augustiner-Br√É¬§u M√É¬ºnchen,M√É¬ºnchen,Germany,0,0
Australian Brewing Corporation,Little River,Australia,-37.968,144.525
Avery Brewing Company,Boulder,United States,40.0166,-105.219
Back Road Brewery,LaPorte,United States,41.6124,-86.7268
Backcountry Brewery,Frisco,United States,39.5765,-106.094
Backwater Brewing,Winona,United States,44.0486,-91.6774
Bad Frog Brewery Company,Rose City,United States,44.4214,-84.1167
Ball- und Brauhaus Watzke,Dresden,Germany,0,0
Ballast Point Brewing,San Diego,United States,32.7668,-117.195
Baltimore-Washington Beer Works,Baltimore,United States,39.42,-76.54
Bamberger Mahr's-Bru,Bamberg,Germany,49.8901,10.9067
Bandana Brewery,Mankato,United States,44.1636,-93.9994
Bar Harbor Brewing Company,Bar Harbor,United States,44.3875,-68.2046
Bard's Tale Beer Company,Lee's Summit,United States,38.9169,-94.3943
Barfer - das kleine Brauhaus,Ulm,Germany,48.3979,9.9899
Barley Brothers Brewery and Grill,Lake Havasu City,United States,34.4702,-114.35
Barley Creek Brewing,Tannersville,United States,41.0523,-75.3354
Barley Island Brewing,Noblesville,United States,40.0453,-86.0155
Barley John's Brewpub,New Brighton,United States,45.036,-93.1984
Barley's #2 Smokehouse and Brewpub,Columbus,United States,39.9745,-83.049
Barley's Brewing #1,Columbus,United States,39.9719,-83.0027
Barley's Casino & Brewing Company,Henderson,United States,36.0721,-115.075
Baron Brewing Company,Seattle,United States,47.5203,-122.312
Barrel House Brewing Co.,Cincinnati,United States,39.1136,-84.526
Basil T's Brew Pub and Italian Grill,Toms River,United States,39.9767,-74.1829
Bass Brewers,Burton-upon-Trent,United Kingdom,52.8046,-1.6281
Bavaria,Barranquilla,Colombia,10.9639,-74.7964
Bavarian Barbarian Brewing Company,Williamsport,United States,41.238,-77.0103
Bayerische Staatsbrauerei Weihenstephan,Freising,Germany,48.3952,11.7288
Bayern Brewing,Missoula,United States,46.8726,-114.02
"BBC Brewing Co., LLC",Louisville,United States,38.2546,-85.7401
Beach Brewing,Orlando,United States,28.5383,-81.3792
Beach Chalet Brewery,San Francisco,United States,37.7694,-122.51
Beamish & Crawford,Cork,Ireland,51.897,-8.4769
Bear Republic Brewery,Healdsburg,United States,38.6112,-122.871
Beck's,,Germany,0,0
Beermann's Beerwerks BrewPub,Lincoln,United States,38.8916,-121.293
Belfast Bay Brewing Company,Belfast,United States,44.4295,-68.975
Belhaven Brewery,East Lothian,United Kingdom,55.997,-2.5098
Belize Brewing,Belize City,Belize,17.4977,-88.1867
Bell's Brewery Inc.,Galesburg,United States,42.2843,-85.4538
Bellows Brew Crew,Watertown,United States,43.1947,-88.729
Bent River Brewing,Moline,United States,41.5059,-90.5171
Berliner Kindl Brauerei AG,Berlin,Germany,52.4793,13.4293
Berliner-Kindl-Schultheiss-Brauerei,Berlin,Germany,52.5234,13.4114
Bersaglier,San Martin,Argentina,0,0
Bethlehem Brew Works,Bethlehem,United States,40.622,-75.382
Bibiana Brewing,Urbana,United States,40.1106,-88.2073
Biddy Early Brewery,Ennis,Ireland,32.3293,-96.6253
Bierbrouwerij Bavaria,Lieshout,Netherlands,51.5163,5.5977
Bierbrouwerij De Koningshoeven,Berkel-Enschot,Netherlands,51.544,5.1285
Bierbrouwerij St.Christoffel,Roermond,Netherlands,51.1684,6.0515
Big Bang Brewery (Closed),San Francisco,United States,37.7756,-122.398
Big Boss Brewing Company,Raleigh,United States,35.8104,-78.6179
Big Buck Brewery,Gaylord,United States,45.0223,-84.6826
Big Buck Brewery and Steakhouse #2,Grand Rapids,United States,42.9634,-85.6681
Big Dog's Brewing Company,Las Vegas,United States,36.2426,-115.236
Big Hole Brewing,Belgrade,United States,45.7736,-111.172
Big Horn Brewing @ The RAM 2,Wheeling,United States,42.1511,-87.9144
Big Ridge Brewing,Surrey,Canada,49.1049,-122.69
Big River Brewing,Richmond,Canada,49.1344,-123.065
Big Rock Brewery,Calgary,Canada,50.9847,-113.956
Big Sky Brewing,Missoula,United States,46.9223,-114.073
Big Time Brewing,Seattle,United States,47.6576,-122.313
Bill's Tavern & Brewhouse,Cannon Beach,United States,45.8981,-123.961
Binding Brauerei AG,Frankfurt am Main,Germany,50.0943,8.6913
Birra Forst,Lagundo / Algund,Italy,0,0
Birra Moretti,Udine,Italy,46.0597,13.2269
Birrificia Le Baladin,Piozzo,Italy,44.5153,7.8922
Birrificio Torrechiara,Torrechiara,Italy,44.6601,10.2814
Bison Brewing,Berkeley,United States,37.8634,-122.259
Bitburger Brauerei,Bitburg,Germany,49.974,6.5227
"BJ's Pizza, Grill, and Brewery - Jantzen Beach",Portland,United States,45.5235,-122.676
BJ's Restaurant and Brewery,Brea,United States,33.9132,-117.889
Black Sheep Brewery,Ripon,United Kingdom,0,0
Black Toad Brewing Company,Chicago,United States,41.8817,-87.6926
Blacksburg Brewing Company,Blacksburg,United States,37.23,-80.41
Blackstone Restaurant & Brewery,Nashville,United States,36.152,-86.7989
Blicks Brewing,Colorado Springs,United States,38.8339,-104.821
Blitz-Weinhard Brewing,Portland,United States,45.5325,-122.686
Bloomington Brewing Company,Bloomington,United States,39.1716,-86.5104
BluCreek Brewing Company,Madison,United States,43.0598,-89.3085
Blue Cat Brew Pub,Rock Island,United States,41.5118,-90.5746
Blue Corn Caf and Brewery - Albuquerque,Albuquerque,United States,35.0845,-106.651
Blue Point Brewing,Patchogue,United States,40.7591,-73.0215
Blue Ridge Brewing,Greenville,United States,34.8531,-82.3983
"Bluegrass Brewing Company, Inc.",Louisville,United States,38.253,-85.654
Bobcat Cafe & Brewery,Bristol,United States,44.1332,-73.0784
Boddington's Brewery,Manchester,United Kingdom,53.4807,-2.2344
Boiler Room Brewpub,Laughlin,United States,35.1584,-114.573
Bonaventure Brewing Co,Los Angeles,United States,34.0532,-118.256
Bonfire Brewery,Northville,United States,42.4311,-83.4833
Boon Rawd Brewery,Bangkok,Thailand,13.7783,100.509
Bootleggers Steakhouse and Brewery,Bakersfield,United States,35.3733,-119.019
Borsodi S√É¬∂rgy√É¬°r,B√É¬∂cs,Hungary,0,0
Boscos Memphis Brewing,Germantown,United States,35.0868,-89.8101
BOSS Browar Witnica S.A.,Witnica,Poland,52.6739,14.9004
Boston Beer Company,Boston,United States,42.3144,-71.1034
Boston Beer Works,Boston,United States,42.347,-71.0989
Bottom's Up Brewing,Pinedale,United States,42.8666,-109.866
Boulder Beer Company,Boulder,United States,40.0267,-105.248
Boulevard Brewing Company,Kansas City,United States,39.0821,-94.5965
Boundary Bay Brewery and Bistro,Bellingham,United States,48.7475,-122.481
Brasal-Brasserie Allemande,LaSalle,Canada,45.4289,-73.6313
Brasserie Artisanale de Rulles,Habay-Rulles,Belgium,49.7185,5.5571
Brasserie Bnifontaine,Bnifontaine,France,50.4852,2.8306
Brasserie Clarysse,Oudenaarde,Belgium,50.8431,3.6077
Brasserie D'Achouffe,Houffalize-Achouffe,Belgium,50.1507,5.7442
Brasserie d'Ecaussinnes,Ecaussinnes,Belgium,50.5593,4.1365
Brasserie d'Orval,Villers-devant-Orval,Belgium,0,0
Brasserie de Blaugies,Blaugies,Belgium,50.3693,3.827
Brasserie de Brunehaut,Brunehaut,Belgium,50.5109,3.3883
Brasserie de Cazeau,,Belgium,0,0
Brasserie de l'Abbaye de Scourmont (Trappistes),Chimay-Forges,Belgium,49.9842,4.3111
Brasserie De L'Abbaye Des Rocs,Montignies-sur-Roc,Belgium,50.3705,3.7263
Brasserie de l'Abbaye Val-Dieu,Aubel,Belgium,50.7046,5.822
Brasserie de la Senne,Sint-Pieters-Leeuw,Belgium,50.7853,4.2437
Brasserie De Saint Sylvestre,St-Sylvestre-Cappel,France,50.7975,2.5412
Brasserie De Silenrieux,Cerfontaine-Silenrieux,Belgium,50.2248,4.4102
Brasserie de Silly,Silly,Belgium,50.6493,3.9242
Brasserie de Tahiti,Tahiti,French Polynesia,-17.6797,-149.407
Brasserie de Vervifontaine,Jalhay-Vervifontaine,Belgium,0,0
Brasserie des Cimes,Aix les Bains,France,45.7075,5.9153
Brasserie des Franches-Montagnes,Saignelgier,Switzerland,47.2543,7.0026
Brasserie des Gants,Irchonwelz,Belgium,50.6204,3.7592
Brasserie des Vosges,Dommartin les Remiremont,France,48.0028,6.6583
Brasserie du Benin,Lom,Togo,32.3906,-93.3739
Brasserie du Bocq,Purnode,Belgium,50.3114,4.9435
Brasserie Dubuisson,Pipaix,Belgium,50.5779,3.5554
Brasserie Dupont,Tourpes,Belgium,50.5718,3.6508
Brasserie Duyck,Jenlain,France,50.3089,3.6285
Brasserie Ellezelloise,Ellezelles,Belgium,50.7428,3.6875
Brasserie Fantme,Soy,Belgium,50.286,5.5127
Brasserie Grain D'Orge,Ronchin,France,50.6054,3.0775
Brasserie La Binchoise,Binche,Belgium,50.408,4.1659
Brasserie La Caracole,Falmignoul,Belgium,50.2024,4.8914
Brasserie La Choulette,Hordain,France,50.2601,3.3125
Brasserie Lefebvre,Quenast,Belgium,50.6746,4.1509
Brasserie McAuslan,Montreal,Canada,45.4682,-73.5913
Brasserie Pietra,Furiani,France,42.6483,9.4529
Brasserie Thiriez,Esquelbecq,France,50.8851,2.4329
Brasserie Val de Sambre,Goze,Belgium,50.3682,4.3266
Brasserie-Brouwerij Cantillon,Anderlecht,Belgium,50.8416,4.3355
Brasseries Kronenbourg,Strasbourg,France,48.593,7.7149
Brauerei & Gasthof zur Krone,Tettnang,Germany,47.6715,9.5888
Brauerei Aying Franz Inselkammer KG,Aying,Germany,47.9706,11.7808
Brauerei Beck,Bremen,Germany,53.0787,8.7901
Brauerei C. & A. Veltins GmbH & Co.,Meschede,Germany,51.3055,8.1259
Brauerei Fssla,Bamberg,Germany,49.8942,10.8855
Brauerei Gbr. Maisel KG,Bayreuth,Germany,49.9477,11.5659
Brauerei Grieskirchen AG,Grieskirchen,Austria,48.2351,13.8292
Brauerei Gss,Leoben-Gss,Austria,47.3625,15.0947
Brauerei Herrenhausen,Hannover,Germany,52.3935,9.6814
Brauerei Hrle,Leutkirch im Allg√É¬§u,Germany,47.8243,10.0239
Brauerei Hrlimann,Zrich,Switzerland,47.3642,8.5245
Brauerei im Fchschen,D√É¬ºsseldorf,Germany,0,0
Brauerei Leibinger,Ravensburg,Germany,47.7818,9.6215
Brauerei Locher AG,Appenzell,Switzerland,47.3301,9.4135
Brauerei Reissdorf,Kln,Germany,50.8753,6.9944
Brauerei Schtzengarten,Sankt-Gallen,Switzerland,47.4301,9.3794
Brauerei Schumacher,Dsseldorf,Germany,51.2216,6.7853
Brauerei Schwelm,Schwelm,Germany,51.2847,7.2936
Brauerei Spezial,Bamberg,Germany,49.8942,10.8855
Brauerei und Altbierkche Pinkus Mller,Mnster,Germany,51.9657,7.6214
Brauerei Wieselburg,Wieselburg,Austria,48.1306,15.1386
Brauereigasthof Adler,Herbertingen,Germany,48.0778,9.3996
Brauhaus am Waldschl√É¬∂sschen,Dresden,Germany,0,0
Brauhaus Brew Hall,Lucan,United States,44.4105,-95.4107
Brauhaus Faust,Miltenberg,Germany,49.6993,9.2492
Brauhaus Johann Albrecht - Dsseldorf,Dsseldorf,Germany,51.2404,6.7516
Brauhaus Johann Albrecht - Konstanz,Konstanz,Germany,47.6651,9.175
Brauhaus Onuma,Onuma,Japan,43.0646,141.347
Brauhaus Sion,Kln,Germany,50.9394,6.9594
Brauhaus Sternen,Frauenfeld,Switzerland,47.5585,8.9006
Brausttte der Steirerbrau Aktiengesellschaft,Graz,Austria,47.0679,15.4417
Breckenridge BBQ of Omaha,Omaha,United States,41.254,-95.9993
Breckenridge Brewery,Denver,United States,39.7236,-105.001
Brennerei-Distillerie Radermacher,Raeren,Belgium,50.6718,6.122
Brew Kettle Taproom & Smokehouse BOP,Strongsville,United States,41.347,-81.8226
Brew Makers,Mountain View,United States,37.3861,-122.084
BrewDog Ltd,Fraserburgh,United Kingdom,57.683,-2.003
Brewer's Art,Baltimore,United States,39.3028,-76.6164
Brewery at Martha's Vineyard,Oak Bluffs,United States,41.4548,-70.565
Brewery Belle-Vue,Molenbeek,Belgium,50.8527,4.3311
Brewery Budweiser Budvar,,Czech Republic,48.9739,14.475
Brewery Corsendonk,Oud-Turnhout,Belgium,51.3144,4.989
Brewery Creek Brewing,Mineral Point,United States,42.8606,-90.1772
Brewery De Troch,Ternat,Belgium,50.853,4.1649
Brewery Ommegang,Cooperstown,United States,42.6818,-74.9255
Brewmasters Restaurant and Brewery South,Kenosha,United States,42.5847,-87.8212
Brewpub-on-the-Green,Fremont,United States,37.5483,-121.989
Breznak,,Czech Republic,0,0
Brick Brewing,Formosa,Canada,0,0
Bricktown Brewery,Dubuque,United States,42.4965,-90.6652
BridgePort Brewing,Portland,United States,45.5311,-122.685
Brimstone Brewing,Frederick,United States,39.3628,-77.4265
Bristol Brewing,Colorado Springs,United States,38.8097,-104.826
Broad Ripple Brewing,Indianapolis,United States,39.8735,-86.1427
Brooklyn Brewery,Brooklyn,United States,40.7215,-73.9575
Broughton Ales,The Borders,United Kingdom,55.6145,-3.4107
Brouwerij 't IJ,Amsterdam,Netherlands,52.3666,4.9263
Brouwerij Abdij der Trappisten van Westmalle,Westmalle,Belgium,51.2974,4.6881
Brouwerij Abdij Saint Sixtus,Westvleteren,Belgium,50.8961,2.7222
Brouwerij Alken-Maes,Jumet,Belgium,50.4431,4.4147
Brouwerij Artois,Leuven,Belgium,50.8853,4.7008
Brouwerij Bavik - De Brabandere,Bavikhove,Belgium,50.8628,3.2992
Brouwerij Bockor,Bellegem,Belgium,50.7767,3.2785
Brouwerij Boon,Lembeek,Belgium,50.7123,4.2197
Brouwerij Bosteels,Buggenhout,Belgium,51.0138,4.2018
Brouwerij De Achelse Kluis,Achel,Belgium,51.2986,5.4896
Brouwerij De Block,Merchtem-Peizegem,Belgium,50.985,4.2226
Brouwerij De Dolle Brouwers,Esen,Belgium,51.0281,2.9038
Brouwerij de Gouden Boom,Brugge,Belgium,51.2094,3.2252
Brouwerij De Keersmaeker,Kobbegem,Belgium,50.9098,4.2505
DC Brau,Washington,United States,0,0
Brouwerij De Landtsheer,Buggenhout,Belgium,51.0228,4.1572
Brouwerij De Ranke,Wevelgem,Belgium,50.8105,3.1857
Brouwerij De Regenboog,Assebroek,Belgium,51.1968,3.2527
Brouwerij De Smedt,Opwijk,Belgium,50.971,4.191
Brouwerij der Sint-Benedictusabdij de Achelse Kluis,Achel,Belgium,51.2515,5.546
Brouwerij Duvel Moortgat,Breendonk,Belgium,51.0442,4.3257
Brouwerij Duysters,Diest,Belgium,50.9882,5.0554
Brouwerij Girardin,Sint-Ulriks-Kapelle,Belgium,0,0
Brouwerij Het Anker,Mechelen,Belgium,51.0325,4.473
Brouwerij Huyghe,Melle,Belgium,0,0
Brouwerij Kerkom,Kerkom,Belgium,50.7763,5.166
Brouwerij Liefmans,Oudenaarde,Belgium,50.8439,3.617
Brouwerij Lindemans,Vlezenbeek,Belgium,50.818,4.2307
Brouwerij Nacional Balashi,,Aruba,0,0
Brouwerij Oud Beersel,Beersel,Belgium,50.7586,4.3012
Brouwerij Rodenbach,Roeselare,Belgium,50.9462,3.1362
Brouwerij Roman,Oudenaarde,Belgium,50.831,3.6759
Brouwerij Sint-Jozef,Opitter,Belgium,51.1168,5.6464
Brouwerij Slaghmuylder,Ninove,Belgium,50.8417,4.0213
Brouwerij St-Feuillien,Le Roeulx,Belgium,50.5018,4.1086
Brouwerij St. Bernardus,Watou,Belgium,50.8425,2.6362
Brouwerij Sterkens,Hoogstraten-Meer,Belgium,51.4439,4.7386
Brouwerij Strubbe,Ichtegem,Belgium,51.0923,3.01
Brouwerij The Musketiers,Ursel,Belgium,51.1287,3.4785
Brouwerij Van Den Bossche,Sint-Lievens-Esse,Belgium,50.8564,3.8845
Brouwerij Van Eecke,Watou,Belgium,50.8612,2.6615
Brouwerij van Hoegaarden,Hoegaarden,Belgium,50.7778,4.8877
Brouwerij Van Honsebrouck,Ingelmunster,Belgium,50.9201,3.2579
Brouwerij Van Steenberge,Ertvelde,Belgium,51.1766,3.7462
Brouwerij Verhaeghe,Vichte,Belgium,50.8322,3.3884
Browar Namys√Ö‚Äö√É¬≥w Sp. z o.o.,Namys√Ö‚Äö√É¬≥w,Poland,0,0
Browar Okocim,Brzesko,Poland,49.9622,20.6003
Browar Warka,Warka,Poland,0,0
Browar Zywiec,Zywiec,Poland,49.6622,19.1742
Brown Street Brewery,Rhinelander,United States,45.638,-89.4127
Brownings,Louisville,United States,38.2554,-85.7441
Bryggeriet lfabrikken,Tisvildeleje,Denmark,56.0746,12.1161
BT McClintic Beer Company,Beloit,United States,42.5083,-89.0318
Bube's Brewery,Mount Joy,United States,40.1119,-76.5031
Budjovick Budvar,esk Budjovice,Czech Republic,0,0
Budjovick Mansk Pivovar,esk Budjovice,Czech Republic,0,0
Bull & Bush Pub & Brewery,Denver,United States,39.705,-104.936
Bulldog Brewing,Fresno,United States,36.7477,-119.772
Bullfrog Brewery,Williamsport,United States,41.2404,-77.0057
Bulmer Cider,Hereford,United Kingdom,52.056,-2.7175
B√É¬ºrgerbr√É¬§u Wolnzach,Wolnzach,Germany,0,0
Burton Bridge Brewery,Burton-upon-Trent,United Kingdom,52.8065,-1.6225
Butte Creek Brewing,Chico,United States,39.7245,-121.848
Butterfield Brewing #1,Fresno,United States,36.7477,-119.772
Buzzards Bay Brewing Inc.,Westport,United States,41.5713,-71.0571
C.B. & Potts of Cheyenne,Cheyenne,United States,41.1607,-104.802
C.H. Evans Brewing Company,Albany,United States,42.6542,-73.7481
Caldera Brewing,Ashland,United States,42.1844,-122.663
Caledonian Brewing,Edinburgh,United Kingdom,55.9358,-3.2297
Calhoun's Microbrewery,Knoxville,United States,35.932,-84.012
California Cider Company,San Rafael,United States,37.9735,-122.531
Callahan's Pub and Brewery,San Diego,United States,32.9147,-117.146
Cambridge Brewing,Cambridge,United States,42.3664,-71.0911
Cameron's Brewing,Oakville,Canada,43.4745,-79.6775
Camerons Brewery Company,Harltepool,United Kingdom,41.4995,-81.6954
Canadian Brewery,Saskatoon,Canada,52.1344,-106.648
Cape Ann Brewing,Gloucester,United States,42.6102,-70.6664
Capital Brewery,Middleton,United States,43.0949,-89.5163
Capital City Brewing Company,Washington,United States,38.8999,-77.0272
Capitol City Brewing #4,Arlington,United States,38.8411,-77.0869
Captain Lawrence Brewing Company,Pleasantville,United States,41.126,-73.7896
Carlow Brewing Company,Carlow,Ireland,52.7196,-6.846
Carlsberg Bryggerierne,Kbenhavn,Denmark,55.6667,12.5393
Carlsberg Sverige AB,Falkenberg,Sweden,56.9002,12.5405
Carlton and United Breweries,Melbourne,Australia,-37.8231,144.967
Carlyle Brewing,Rockford,United States,42.2689,-89.0907
Carmel Brewing,Salinas,United States,36.6777,-121.656
Carolina Beer Company,Mooresville,United States,35.6231,-80.8011
Carolina Brewery,Chapel Hill,United States,35.9103,-79.0632
Carver Brewing Co.,Durango,United States,37.2748,-107.88
Castle Springs Brewery,Moultonborough,United States,43.7548,-71.3967
Cat's Paw Home Brew,,United States,0,0
Catamount Brewing,White River Junction,United States,43.649,-72.3193
Cedar Brewing,Cedar Rapids,United States,41.9625,-91.6918
Celis Brewery,Austin,United States,30.2672,-97.7431
Central City Brewing Company,Surrey,Canada,49.1873,-122.85
Central Waters Brewing Company,Amherst,United States,44.4419,-89.2797
Cervecera Centro Americana S.A.,Guatemala City,Guatemala,14.6133,-90.5353
Cervecera Cuauhtmoc-Moctezuma,Monterrey,Mexico,25.7091,-100.314
Cervecera del Pacfico,Mazatln,Mexico,0,0
Cervecera Hondurea,San Pedro Sula,Honduras,0,0
Cervecera Jerome,Mendoza,Argentina,-32.8902,-68.844
Cervecera Nacional,El Dorado,Panama,37.4316,-78.6569
Cerveceria Bucanero,Holguin,Cuba,0,0
Cervecer√É¬≠a La Constancia,San Salvador,El Salvador,0,0
Cervejaria de Macau,Macao,Macao,19.7219,-101.225
Cervejaria Kaiser Brasil,Ponta Grossa,Brazil,-25.1688,-50.1298
Cervejaria Sudbrack,Blumenau,Brazil,-26.8914,-49.1223
Cervezas Alhambra,Granada,Spain,37.1875,-3.6018
Chama River Brewing,Albuquerque,United States,35.14,-106.6
Charles Wells Ltd.,Bedford,United Kingdom,52.1321,-0.4815
Charlie and Jake's Brewery and BBQ,Melbourne,United States,28.2126,-80.6734
Chelsea Brewing Company,New York,United States,40.7457,-74.0086
Cherryland Brewing,Sturgeon Bay,United States,44.8342,-87.377
Cheshire Cat Brewery,Arvada,United States,39.8023,-105.084
Chicago Brewing,Las Vegas,United States,36.1476,-115.298
Chimay (Abbaye Notre Dame de Scourmont),Chimay,Belgium,50.0355,4.3777
Cigar City Brewing,Tampa,United States,27.9587,-82.5093
Circle V Brewing,Indianapolis,United States,39.7684,-86.158
"City Brewing Company, LLC",La Crosse,United States,0,0
CJ's Brewery & Grill,La Jolla,United States,33.8575,-117.876
Cleveland ChopHouse and Brewery,Cleveland,United States,41.4995,-81.6994
Climax Brewing Copmany,Roselle Park,United States,40.6598,-74.283
Clipper City Brewing Co.,Baltimore,United States,39.2308,-76.6751
Clner Hofbrau Frh,Kln,Germany,50.9401,6.957
Coach's Norman,Norman,United States,35.2205,-97.4439
Coast Brewing,Biloxi,United States,30.396,-88.8853
Coast Range Brewing,Gilroy,United States,37.0013,-121.566
Coastal Fog Brewing,Concord,United States,37.978,-122.031
Coeur d'Alene Brewing Company,Coeur d'Alene,United States,47.6745,-116.784
Cold Spring Brewing,Cold Spring,United States,45.4582,-94.4291
Columbia Bay Brewery Restaurant and Pub,Lake Villa,United States,42.417,-88.074
Commonwealth Brewing #1,Boston,United States,42.3584,-71.0598
Coniston Brewing,Coniston,United Kingdom,0,0
Cooper's Cave Ale Company,Glens Falls,United States,43.3177,-73.64
Coopers Brewery,Regency Park,Australia,-34.8727,138.573
Cooperstown Brewing Company,Milford,United States,42.5893,-74.9403
Coors Brewing - Golden Brewery,Golden,United States,39.7599,-105.219
Copper Dragon Brewing,Carbondale,United States,37.7273,-89.2168
Copper Eagle Brewing,Grand Island,United States,40.9222,-98.3581
Copper Kettle Brewery,Millmont,United States,40.8942,-77.1971
Corner Pub,Reedsburg,United States,43.5323,-90.0099
Coronado Brewing Company,Coronado,United States,32.6976,-117.173
Costal Extreme Brewing Company,Middletown,United States,41.537,-71.2796
Courage Brewery,Tadcaster,United Kingdom,53.8846,-1.2652
Court Avenue Brewing,Des Moines,United States,41.5855,-93.621
Courthouse Pub,Manitowoc,United States,44.0886,-87.6576
Crabby Larry's Brewpub Steak & Crab House,Chalfont,United States,40.2795,-75.2143
Crabtree Brewery,Greeley,United States,40.4313,-104.688
Craftsman Brewing,Pasadena,United States,34.1696,-118.159
Crane River Brewpub and Cafe,Lincoln,United States,40.8069,-96.6817
Crescent City Brewhouse,New Orleans,United States,29.9558,-90.0641
Crested Butte Brewery &  Pub,Crested Butte,United States,38.8698,-106.987
Cricket Hill,Fairfield,United States,40.8726,-74.2964
Crooked River Brewing,Cleveland,United States,41.4995,-81.6954
Crooked Waters Brewing,Peoria,United States,40.6936,-89.589
Cropton Brewery,Pickering,United Kingdom,54.2912,-0.8406
Devil's Canyon,Belmont,United States,0,0
Cucapa Brewing Company,Mexicali,Mexico,31.7291,-116.578
Cugino Brewing Company,Batavia,United States,41.8539,-88.2776
Cumberland Brewery,Louisville,United States,38.2309,-85.7055
D.L. Geary Brewing Company,Portland,United States,43.7076,-70.3149
Daas,Tournai,Belgium,50.6059,3.3884
Daleside Brewery,Harrogate,United Kingdom,53.9999,-1.501
Dark Horse Brewing Co.,Marshall,United States,42.2667,-84.9641
Day Brewing,Marrero,United States,29.8994,-90.1004
de dochter van de korenaar,baarle-hertog,Belgium,51.4421,4.9232
De Friese Bierbrouwerij Us Heit,Bolsward,Netherlands,53.0606,5.5342
De Halve Maan,Brugge,Belgium,51.2026,3.2242
De Leyerth Brouwerijen,Ruiselede,Belgium,51.0811,3.3699
De Proef Brouwerij,Lochristi-Hijfte,Belgium,51.1159,3.8158
De Struise Brouwers,Woesten,Belgium,50.9229,2.7518
Deep Creek Brewing,McHenry,United States,39.5584,-79.3528
DeGroen's Grill,Baltimore,United States,39.2904,-76.6122
Del Mar Stuft Pizza and Brewing,San Diego,United States,32.7153,-117.157
Delafield Brewhaus,Delafield,United States,43.0481,-88.3553
Dempsey's Restaurant & Brewery,Petaluma,United States,38.2362,-122.64
Denmark Brewing,Denmark,United States,44.3478,-87.8273
Denver ChopHouse and Brewery,Denver,United States,39.7553,-104.997
Deschutes Brewery,Bend,United States,44.0474,-121.323
Desnoes & Geddes Ltd,Kingston,Jamaica,33.9858,-96.6515
Devil Mountain Brewing,Cincinnati,United States,39.1361,-84.5031
Diamond Bear Brewing Co.,Little Rock,United States,34.7473,-92.2839
Diamond Knot Brewery & Alehouse,Mukilteo,United States,47.9485,-122.305
Diamondback Brewery,Cleveland,United States,41.4995,-81.6954
Dick's Brewing,Centralia,United States,46.7713,-123.007
Diebels Privatbrauerei,Issum,Germany,51.5331,6.4213
Dieu du Ciel,Montr√É¬©al,Canada,45.5228,-73.5928
Dillon Dam Brewery,Dillon,United States,39.6282,-106.059
Dinkelacker-Schwaben Bru,Stuttgart,Germany,0,0
Dirt Cheap Cigarettes and Beer,Fenton,United States,38.5405,-90.4607
Dix Barbecue & Brewery,Vancouver,Canada,49.2766,-123.115
Dixie Brewing,New Orleans,United States,29.9606,-90.0871
Dixon's Downtown Grill,Denver,United States,39.7541,-105
Dock Street Beer,West Philly,United States,39.9478,-75.2229
Dockside Brewing,Vancouver,Canada,49.2698,-123.132
Doemens e.V.,Grfelfing,Germany,0,0
Dogfish Head Craft Brewery,Milton,United States,38.7683,-75.3107
Dortmunder Actien Brauerei  DAB,Dortmund,Germany,51.5298,7.4692
Dostal Alley,Central City,United States,39.8019,-105.514
Double Mountain Brewery & Taproom,Hood River,United States,45.71,-121.515
Dragonmead Microbrewery,Warren,United States,42.493,-82.9753
Drake's Brewing,San Leandro,United States,37.7176,-122.182
Dreher Srgyrak Zrt.,Budapest,Hungary,47.4921,19.1422
Dry Gulch Brewing,Albuquerque,United States,35.0845,-106.651
Dublin Brewing,Dublin,Ireland,53.3441,-6.2675
Dubuque Brewing and Bottling,Dubuque,United States,42.5006,-90.6646
Duck-Rabbit Craft Brewery,Farmville,United States,35.6003,-77.5971
DuClaw,Baltimore,United States,39.2807,-76.5944
Dunedin Brewery,Dunedin,United States,28.014,-82.7876
Duneland Brewhouse Pub and Restaurant,Michigan City,United States,41.7075,-86.895
Duvel Moortgat,Breendonk,Belgium,0,0
Dux de Lux,Queenstown,New Zealand,-45.0331,168.661
Eagle Brewing,Mukilteo,United States,0,0
East End Brewing Company,Pittsburgh,United States,40.4553,-79.9043
Eastern Shore Brewing,St Michaels,United States,38.7814,-76.2222
Eddie McStiff's Brewpub,Moab,United States,38.5725,-109.551
Edelweissbrauerei Farny,Kilegg,Germany,0,0
Eder & Heylands,Gro√É≈∏ostheim,Germany,49.9211,9.0715
Eel River Brewing,Fortuna,United States,40.5793,-124.153
Efes Moscow Brewery,Moskva,Russia,55.7558,37.6176
Egan Brewing,De Pere,United States,44.4489,-88.0604
Einbecker Brauhaus AG,Einbeck,Germany,51.8162,9.8643
EJ Phair Brewing Company and Alehouse,Concord,United States,37.978,-122.034
el ahram company,,Egypt,0,0
El Toro Brewing Company,Morgan Hill,United States,37.1553,-121.676
"Eldridge, Pope and Co.",Dorchester,United Kingdom,0,0
Elgood & Sons,Wisbech,United Kingdom,52.6643,0.1595
Elk Creek Cafe and Aleworks,Millheim,United States,40.8911,-77.477
Elk Grove Brewery & Restaurant,Elk Grove,United States,38.4093,-121.363
Ellersick Brewing Big E Ales,Lynnwood,United States,47.8099,-122.302
Ellicott Mills Brewing,Ellicott City,United States,39.2684,-76.7994
Elliott Bay Brewery and Pub,Seattle,United States,47.5604,-122.387
Elm City Brewing Co,Keene,United States,42.9324,-72.2867
Elysian Brewery & Public House,Seattle,United States,47.614,-122.316
Elysian Brewing - TangleTown,Seattle,United States,47.6688,-122.334
Emerson Brewing,Dunedin,New Zealand,-45.872,170.518
Emery Pub,Emeryville,United States,37.8313,-122.285
Emmett's Tavern and Brewery,West Dundee,United States,42.0981,-88.2783
Empyrean Brewing Company,Lincoln,United States,40.8155,-96.7105
EndeHouse Brewery and Restaurant,Reedsburg,United States,43.5325,-90.0026
Engel Brauerei Schwbisch Gmnd Lang,Schwbisch Gmnd,Germany,0,0
Engine House #9,Tacoma,United States,47.256,-122.473
English Ales Brewery,Marina,United States,36.6802,-121.804
Epic Brewing Company,Auckland,New Zealand,-36.9489,174.821
Erie Brewing Company,Erie,United States,42.1112,-80.113
Esser's Cross Plains Brewery,Cross Plains,United States,43.1147,-89.6531
Estes Park Brewery,Estes Park,United States,40.3707,-105.526
Etna Brewing,Etna,United States,41.4559,-122.846
Ettaler Klosterbetriebe Abteilung Brauerei & Destillerie,Ettal,Germany,47.569,11.0942
F.X. Matt Brewing,Utica,United States,43.1045,-75.2452
Far West Ireland Brewing,Redmond,United States,47.6701,-122.118
Fauerbach Brewing Company,Madison,United States,43.0844,-89.4761
Faultline Brewing #1,Sunnyvale,United States,37.387,-121.993
Faultline Brewing #2,Walnut Creek,United States,37.8855,-122.033
Federation Brewery,Gateshead,United Kingdom,54.9548,-1.6576
Feldschl√É¬∂√É≈∏chen AG,Dresden,Germany,0,0
Felinfoel Brewery Co Ltd,Llanelli,United Kingdom,51.6987,-4.1456
Fifty Fifty Brewing Co.,Truckee,United States,39.322,-120.163
Firehouse Brewery & Restaurant,Red Oak,United States,41.0117,-95.2272
Firehouse Brewing,Rapid City,United States,44.0812,-103.227
Firehouse Grill & Brewery,Sunnyvale,United States,37.3775,-122.03
Firestone Walker Brewing Company,Paso Robles,United States,35.5953,-120.694
First Coast Brewing,Wilmington,United States,34.2257,-77.9447
Fish Brewing Company & Fish Tail Brewpub,Olympia,United States,47.0437,-122.897
"Fitger's Brewhouse, Brewery and Grill",Duluth,United States,46.7926,-92.0909
Fitzpatrick's Brewing,Iowa City,United States,41.6611,-91.5302
Flagstaff Brewing,Flagstaff,United States,35.1973,-111.648
Flat Branch Pub & Brewing,Columbia,United States,38.95,-92.3323
Flat Earth Brewing Company,St. Paul,United States,44.9084,-93.1538
Flatlander's Restaurant & Brewery,Lincolnshire,United States,42.2031,-87.9302
Flensburger Brauerei,Flensburg,Germany,54.779,9.4355
Florida Beer Company,Melbourne,United States,28.0707,-80.6012
Flossmoor Station Brewery,Flossmoor,United States,41.5433,-87.6789
Flour City Brewing,Rochester,United States,43.161,-77.6109
Flyers Restraunt and Brewery,Oak Harbor,United States,48.2992,-122.652
Flying Bison Brewing,Buffalo,United States,42.9561,-78.8966
Flying Dog Brewery,Denver,United States,39.7582,-104.99
Flying Fish Brewing Company,Cherry Hill,United States,39.9121,-74.9701
Folx-les-Caves,Jauche,Belgium,50.6818,4.9547
Foothills Brewing Company,Winston-Salem,United States,36.0973,-80.2509
Fordham Brewing,Annapolis,United States,38.9773,-76.4948
Fort Collins Brewery,Fort Collins,United States,40.5832,-105.042
Foster's Australia Ltd.,,Australia,0,0
Fosters Tien Gang,Thnh Pho Ho Ch Minh,Viet Nam,0,0
Founder's Restaurant & Brewing,Alexandria,United States,38.8048,-77.0469
Founders Brewing,Grand Rapids,United States,42.9585,-85.6735
Founders Hill Brewing,Downers Grove,United States,41.8089,-88.0112
Four Peaks Brewing,Tempe,United States,33.4194,-111.916
Fox River Brewing #1,Oshkosh,United States,44.0342,-88.5608
Fratellos Restaurant and Brewery,Appleton,United States,44.2678,-88.4731
Frederic Robinson Ltd.,Stockport,United Kingdom,41.499,-72.9007
Frederick Brewing,Frederick,United States,39.3628,-77.4265
Free State Brewing,Lawrence,United States,38.9718,-95.2357
Freeminer Brewery,Cinderford,United Kingdom,51.8325,-2.5116
Friesisches Brauhaus zu Jever,Jever,Germany,53.5755,7.9016
Front Street Brewery,Davenport,United States,41.5202,-90.5725
Frontwaters Restaurant and Brewing,Marblehead,United States,41.5403,-82.7355
Frstliche Brauerei Thurn Und Taxis Regensburg,Regensburg,Germany,49.0156,12.0913
Full Sail Brewing #1,Hood River,United States,45.7103,-121.515
"Fuller, Smith & Turner PBC",London,United Kingdom,51.4877,-0.2498
F√É¬ºrstlich F√É¬ºrstenbergische Brauerei,Donaueschingen,Germany,0,0
G. Heileman Brewing,La Crosse,United States,43.8014,-91.2396
Gaslight Brewery,South Orange,United States,40.7465,-74.2594
Gasthaus & Gosebrauerei Bayerischer Bahnhof,Leipzig,Germany,51.3397,12.3714
Gasthaus-Brauerei Max & Moritz,Kressbronn am Bodensee,Germany,47.6064,9.6061
Gasthof-Brauerei zum Frohsinn,Arbon,Switzerland,47.5171,9.43
Gatz Brauhaus,Dsseldorf,Germany,51.2249,6.7757
George Bateman and Son Ltd.,Skegness,United Kingdom,53.1691,0.3169
George Gale & Company,Portsmouth,United Kingdom,50.7989,-1.0912
Gilde Brauerei,Hannover,Germany,52.3544,9.7532
Glacial Lakes Brewing,New York Mills,United States,46.518,-95.3761
Glacier Brewhouse,Anchorage,United States,61.2179,-149.896
Glen Ellyn Sports Brew,Glen Ellyn,United States,41.8775,-88.067
Glenwood Canyon Brewing Company,Glenwood Springs,United States,39.5476,-107.323
Gold Coast Brewery,Sanctuary Cove,Australia,-27.8539,153.359
Gold Crown Brewing,Waterloo,Canada,43.4676,-80.5231
Golden City Brewery,Golden,United States,39.7546,-105.224
Golden Gate Park Brewery,San Francisco,United States,37.7749,-122.419
Golden Pacific Brewing,Berkeley,United States,37.8716,-122.273
Golden Prairie Brewing,Chicago,United States,41.9273,-87.6807
Golden Valley Brewery and Pub,McMinnville,United States,45.2104,-123.189
Goose Island Beer Company - Clybourn,Chicago,United States,41.9137,-87.6543
Goose Island Beer Company - Fulton Street,Chicago,United States,41.8871,-87.6721
Gordash Brewing Company,Fort Lauderdale,United States,26.0745,-80.1806
Gordon Biersch Brewing,San Jose,United States,37.3526,-121.893
Gore Range Brewery,Edwards,United States,39.6441,-106.596
Gottberg Brew Pub,Columbus,United States,41.4295,-97.3623
Govnor's Public House,Lake In The Hills,United States,42.1779,-88.3377
Grand Lake Brewing,Grand Lake,United States,40.2518,-105.82
Grand Teton Brewing #1,Wilson,United States,43.4988,-110.877
Grand Teton Brewing #2,Victor,United States,43.5984,-111.108
Granite City Food & Brewery - Omaha,Omaha,United States,41.2672,-96.0714
Granite City Food & Brewery - Saint Cloud,Saint Cloud,United States,45.5498,-94.2067
Granville Island Brewing,Kelowna,Canada,49.8945,-119.488
Granville Island Brewing Company,Vancouver,Canada,49.2705,-123.136
Gray Brewing,Janesville,United States,42.6793,-89.0498
Great Basin Brewing Company,Sparks,United States,39.5349,-119.754
Great Bear Brewing,Wasilla,United States,61.5816,-149.439
Great Dane Pub and Brewing #1,Madison,United States,43.0745,-89.3802
Great Dane Pub and Brewing #2,Fitchburg,United States,43.0177,-89.4232
Great Divide Brewing,Denver,United States,39.7539,-104.989
Great Lakes Brewing,Cleveland,United States,41.4844,-81.7042
Great Northern Tavern and Brewery,Keystone,United States,39.6042,-105.948
Great Waters Brewing Company,Saint Paul,United States,44.9467,-93.097
Green Bay Brewing,Green Bay,United States,44.5189,-88.0196
Green Flash Brewing,Vista,United States,33.136,-117.225
Green Mill Brewing - Saint Paul,Saint Paul,United States,44.9398,-93.1568
Green Mountain Beverage,Middlebury,United States,44.0344,-73.1735
Greene King,Bury St. Edmunds,United Kingdom,52.241,0.7157
Greenshields Brewery and Pub,Raleigh,United States,35.7721,-78.6386
Grizzly Bay Brewing,Suisun City,United States,38.2382,-122.04
Grizzly Peak Brewing,Ann Arbor,United States,42.2805,-83.749
Grolsche Bierbrouwerij,Enschede,Netherlands,52.2081,6.8163
Grumpy Troll Restaurant and Brewery,Mount Horeb,United States,43.0081,-89.7383
Grupo Modelo,Mexico City,Mexico,19.427,-99.1276
Gulpener Bierbrouwerij,Gulpen,Netherlands,50.8109,5.9213
Haarlems Biergenootschap Jopen,Haarlem,Netherlands,52.3795,4.6377
Hacker-Pschorr Bru,Mnchen,Germany,48.1391,11.5802
Hair of the Dog Brewing,Portland,United States,45.4901,-122.643
Hale's Ales #3,Seattle,United States,47.6592,-122.366
Half Moon Bay Brewing,Princeton by the Sea,United States,37.4903,-122.435
Ham's Restaurant and Brewhouse,Greenville,United States,35.6083,-77.3732
Hambleton Ales,Melmerby,United Kingdom,54.1744,-1.4844
Hampshire Brewery,Romsey,United Kingdom,50.9889,-1.4989
Hannen Brauerei,Mnchengladbach,Germany,51.1913,6.4421
Hansa Bryggeri,Bergen,Norway,60.2945,5.2592
Hanssens Artisanal,Dworp,Belgium,50.729,4.2971
Hapa*s Brew Haus and Restaurant,Kihei,United States,20.7592,-156.457
Harbor City Brewing,Port Washington,United States,43.3871,-87.8795
Harmon Brewing Company,Tacoma,United States,47.2436,-122.437
Harpoon Brewery - Boston,Boston,United States,42.3465,-71.0338
Harpoon Brewery - Windsor,Windsor,United States,43.513,-72.4015
Harvest Moon Brewery / Cafe,New Brunswick,United States,40.4962,-74.4441
Harvey & Son (Lewes),Lewes,United Kingdom,50.8742,0.0167
Harviestoun Brewery,Alva,United Kingdom,56.1531,-3.8006
Hasserder Brauerei,Wernigerode,Germany,51.8439,10.7533
Hausbrauerei Zum Schlssel,Dsseldorf,Germany,51.2261,6.7745
Hawks Brewing,Roseburg,United States,43.2165,-123.342
HC Berger Brewing,Fort Collins,United States,40.5853,-105.084
Heartland Brewery Union Square,New York,United States,40.7323,-73.9874
Heavenly Daze Brewery and Grill,Denver,United States,39.7392,-104.985
Heavyweight Brewing,Ocean,United States,39.9653,-74.3118
Heineken Hung√É¬°ria,Sopron,Hungary,0,0
Heineken International,,Netherlands,0,0
Heineken Ireland,Cork,Ireland,0,0
Heineken Switzerland,Winterthur,Switzerland,47.5077,8.7302
Heller Bru Trum,Bamberg,Germany,49.892,10.8853
Hereford & Hops Restaurant and Brewpub #1,Escanaba,United States,45.7458,-87.056
Hereford & Hops Steakhouse and Brewpub #3,Wausau,United States,44.9518,-89.6657
Herkimer Pub & Brewery,Minneapolis,United States,44.9491,-93.2885
Hida Takayama Brewing Agricultural Company,Takayama,Japan,0,0
High Desert Brewing Co.,Las Cruces,United States,32.3096,-106.793
High Falls Brewing,Rochester,United States,43.1646,-77.6155
High Point Wheat Beer Company,Butler,United States,41.0016,-74.3403
Highland Brewing Company,Asheville,United States,35.5716,-82.4991
Hirschbru Privatbrauerei Hss,Sonthofen,Germany,47.5132,10.279
Hite Brewery,Seoul,"Korea, Republic of",37.5665,126.978
Hochstiftliches Brauhaus in Bayern,Motten,Germany,50.3949,9.7724
Hoepfner Privatbrauerei,Karlsruhe,Germany,49.0125,8.4264
Hofbru Kaltenhausen Salzachtal,Hallein,Austria,47.6942,13.0784
Hofbruhaus Traunstein,Traunstein,Germany,47.8691,12.6505
Hoffbrau Steaks Brewery #1,Addison,United States,32.9618,-96.8292
Hoffbrau Steaks Brewery #2,Dallas,United States,32.803,-96.7699
Hofmark Brauerei,Cham,Germany,49.1672,12.6399
Holsten-Brauerei,Hamburg,Germany,53.5621,9.9451
Hook & Ladder Brewing Company,Silver Spring,United States,38.9911,-77.0237
Hook Norton Brewery,Hook Norton,United Kingdom,51.9966,-1.4922
Hop Back Brewery,Salisbury,United Kingdom,0,0
Hoppers Seafood & Grill,Midvale,United States,40.6215,-111.866
Hoppin Frog Brewery,Akron,United States,41.0247,-81.4676
Hoppy Brewing Company,Sacramento,United States,38.5551,-121.43
Hops Grillhouse & Brewery - Cherry Creek,Denver,United States,39.7187,-104.95
Hops Haven Brew Haus,Sheboygan,United States,43.7594,-87.7228
HopTown Brewing,Pleasanton,United States,37.677,-121.898
Hopworks Urban Brewery,Portland,United States,45.4969,-122.635
Hornsby's Pubdrafts Ltd.,Modesto,United States,37.6345,-120.982
HP Bulmer,Hereford,United Kingdom,42.2626,-71.8023
Htt-Brauerei Bettenhuser,Baunatal,Germany,51.2615,9.4494
Hubcap Brewery and Kitchen,Vail,United States,39.6403,-106.374
Hudepohl-Schoenling Brewing,Cincinnati,United States,39.2651,-84.3799
Hue Brewery,Hue,Viet Nam,-33.2175,151.426
Uehara Shuzou Co. Ltd. / Echigo Beer Pub,,Japan,0,0
Humboldt Brewing,Arcata,United States,40.87,-124.087
ICOBES b.v.b.a.,Evergem,Belgium,51.1007,3.6934
Idaho Brewing,Idaho Falls,United States,43.4666,-112.034
Illinois Brewing,Bloomington,United States,40.4787,-88.9946
InBev,Leuven,Belgium,50.8865,4.7069
Independence Brew Pub,Philadelphia,United States,39.9526,-75.1594
Independence Brewing Co,Austin,United States,30.2131,-97.7358
Indian Wells Brewing,Inyokern,United States,35.6675,-117.874
Industrias La Constancia ILC,San Salvador,El Salvador,13.6998,-89.1832
Industrija Piva I Sokova Trebjesa,Nikic,Serbia and Montenegro,0,0
Inveralmond Brewery,Perth,United Kingdom,56.4174,-3.4779
Irish Brewing Company,Newbridge,Ireland,53.4863,-6.168
Iron City Brewing Co.,Pittsburgh,United States,40.461,-79.9653
Iron Hill Brewery - Newark,Newark,United States,39.6834,-75.7467
Iron Hill Brewery - Wilmingon,Wilmington,United States,39.745,-75.5561
Iron Springs Pub & Brewery,Fairfax,United States,37.986,-122.584
Island Brewing Company,Carpinteria,United States,0,0
Isle of Skye Brewing Company,Isle of Skye,United Kingdom,56.4907,-4.2026
Issaquah Brewhouse,Issaquah,United States,47.53,-122.037
Ithaca Beer Company,Ithaca,United States,42.4145,-76.5315
Jack Russell Brewing,Camino,United States,38.7563,-120.679
Jack's Brewing,Fremont,United States,37.5441,-121.988
Jacob Leinenkugel Brewing Company,Chippewa Falls,United States,44.9449,-91.3968
Jaipur Restaurant and Brewpub,Omaha,United States,41.2328,-96.0825
James Page Brewing,Minneapolis,United States,45.0039,-93.2502
Jarre Creek Ranch Brewing,Castle Rock,United States,39.3722,-104.856
Jasper Ridge Brewery,Ishpeming,United States,46.5015,-87.679
Jennings Brewery,Cockermouth,United Kingdom,54.6649,-3.3634
Jever Brewery,"Jever, Germany",Germany,53.5757,7.9003
Jinro Coors Brewing,Seoul,"Korea, Republic of",37.5665,126.978
JJ Bitting Brewing,Woodbridge,United States,40.5549,-74.2771
Jobber's Canyon Restaurant & Brewery,Omaha,United States,41.254,-95.9993
JoBoy's Brew Pub,Manheim,United States,40.1707,-76.3838
John Harvard's Brew House - Framingham,Framingham,United States,42.3037,-71.3966
John Harvard's Brew House - Harvard Square,Cambridge,United States,42.3724,-71.1193
John Harvard's Brewhouse - Wilmington,Wilmington,United States,39.7458,-75.5467
John Martin sa,Genval,Belgium,50.7298,4.508
Jolly Pumpkin Artisan Ales,Dexter,United States,42.3375,-83.8895
Joshua Huddy's Brew Pub and Grill,Toms River,United States,39.9529,-74.201
JT Whitney's Brewpub and Eatery,Madison,United States,43.0519,-89.4737
Jurupa Valley Brewing,Riverside,United States,33.9533,-117.396
JW Lees and Co (Brewers) Ltd.,Manchester,United Kingdom,53.5412,-2.1734
Kaiser-Bru,Neuhaus,Germany,49.6283,11.5498
Kaiserdom Privatbrauerei Bamberg,Bamberg,Germany,49.9043,10.8524
Kalamazoo Brewing,Kalamazoo,United States,42.2949,-85.5788
Karl Strauss Brewery Gardens - Sorrento Mesa,San Diego,United States,32.8969,-117.201
Karlovacka Pivovara,Karlovac,Croatia,45.4956,15.5331
Keesmann Bru,Bamberg,Germany,49.8904,10.9056
Keg Microbrewery & Restaurant,Stevens Point,United States,44.5236,-89.5746
Keihan Uji Kotsu,Uji,Japan,0,0
Kelmer's Brewhouse,Santa Rosa,United States,38.4405,-122.714
Kentucky Hemp Beer Company,Lexington,United States,38.0317,-84.4951
Kenya Breweries,Nairobi,Kenya,-1.2833,36.8167
Kessler Brewing,Helena,United States,46.5958,-112.027
King and Barnes,Horsham,United Kingdom,51.0638,-0.327
"Kirin Brewery Company, Ltd",,Japan,0,0
Kiuchi Shuzou Goushi Kaisya,Ibaraki,Japan,0,0
Kleinbrouwerij de Glazen Toren,Erpe-Mere,Belgium,50.9193,3.9666
Klosterbrauerei Neuzelle,Neuzelle,Germany,52.091,14.6509
Klosterbrauerei Weltenburg,Regensburg,Germany,49.0144,12.075
Klosterbru Bamberg,Bamberg,Germany,49.8891,10.887
Knig Brauerei,Duisburg,Germany,51.5314,6.7418
Knig Ludwig Schlobrauerei Kaltenberg,Frstenfeldbruck,Germany,48.1826,11.2522
Knigsbacher Brauerei,Koblenz,Germany,50.3216,7.5862
Knigsegger WalderBru,Knigseggwald,Germany,47.9262,9.4204
Kona Brewing,Kailua-Kona,United States,19.642,-155.996
K√É¬∂stritzer Schwarzbierbrauerei,Bad K√É¬∂stritz,Germany,0,0
Kr√É¬°lovsk√É¬Ω pivovar Kru√Ö¬°ovice,Kru√Ö¬°ovice,Czech Republic,0,0
Krogh's Restaurant and Brewpub,Sparta,United States,41.0323,-74.6407
Kross Brewing,Morrisville,United States,44.5617,-72.5984
Kuhnhenn Brewing,Warren,United States,42.5278,-83.0472
Kulmbacher Brauerei AG,Kulmbach,Germany,50.106,11.4442
Kulmbacher Mnchshof Bru,Kulmbach,Germany,50.1077,11.453
La Jolla Brew House,La Jolla,United States,32.8409,-117.274
La Jolla Brewing,La Jolla,United States,33.8575,-117.876
Labatt / Keith's Brewery / Oland Breweries,Halifax,Canada,44.6598,-63.5997
Labatt Ontario Breweries,London,Canada,42.9778,-81.2467
LaConner Brewing,LaConner,United States,48.3917,-122.495
Lafayette Brewing,Lafayette,United States,40.4194,-86.89
Lagunitas Brewing Company,Petaluma,United States,38.2724,-122.662
Lake Louie Brewing,Arena,United States,43.1706,-89.9324
Lake Placid Pub & Brewery,Lake Placid,United States,44.2829,-73.9813
Lake Superior Brewing,Duluth,United States,46.7611,-92.1319
Lakefront Brewery,Milwaukee,United States,43.0547,-87.9053
Lammin Sahti Oy,Lammi,Finland,0,0
Lancaster Brewing Co.,Lancaster,United States,40.0438,-76.2984
Lanchester Brewing,Durham,United Kingdom,54.8229,-1.7457
Lang Creek Brewry,Marion,United States,48.014,-115.011
Latrobe Brewing,Latrobe,United States,40.3212,-79.3795
Laughing Dog Brewing,Ponderay,United States,48.3003,-116.538
Lazy Magnolia Brewing Company,Kiln,United States,30.3764,-89.4497
Le Cheval Blanc,Montreal,Canada,45.5181,-73.5642
Left Coast Brewing,San Clemente,United States,33.4577,-117.589
Left Hand Brewing Company,Longmont,United States,40.1587,-105.113
Legacy Brewing Co.,Reading,United States,40.3256,-75.9283
Legends Brewhouse & Eatery of Green Bay,Green Bay,United States,44.5534,-88.0977
Leinenkugel's Ballyard Brewery,Phoenix,United States,33.4484,-112.074
Lewis & Clark Brewing Company,Helena,United States,46.5977,-112.037
Liberty Steakhouse and Brewery,Myrtle Beach,United States,33.7187,-78.8831
Licher Privatbrauerei,Lich,Germany,50.5208,8.8166
Liefmans Breweries,Dentergem,Belgium,50.9649,3.422
Lift Bridge Brewery,Stillwater,United States,45.0565,-92.8222
Lighthouse Brewing,Victoria,Canada,48.4358,-123.396
Lightning Boy Brewery,Belgrade,United States,45.7786,-111.179
Limburg Beer Company,Hawkes Bay,New Zealand,-39.6275,176.854
Lion Brewery Ceylon Ltd.,Colombo,Sri Lanka,38.7548,-9.1883
Lion Brewery Inc.,Wilkes Barre,United States,41.2557,-75.8583
Lion Nathan Australia  Hunter Street,Sydney,Australia,-33.8687,151.217
Listermann Brewing Company,Cincinnati,United States,39.1456,-84.4741
Little Apple Brewing,Manhattan,United States,39.1836,-96.5717
Little Creatures Brewery,Fremantle,Australia,-32.0597,115.745
Live Oak Brewing,Austin,United States,30.2541,-97.7055
Loaf and Stein Brewing,Eagle River,United States,45.9172,-89.2443
Lobkowiczk Pivovar Vysok Chlumec,Vysok Chlumec,Czech Republic,49.6206,14.3837
Logjam Microbrewery,Unity,United States,44.8516,-90.3165
Long Trail Brewing Co,Bridgewater Corners,United States,43.5882,-72.6563
Long Valley Pub & Brewery,Long Valley,United States,40.7843,-74.78
Lost Coast Brewery,Eureka,United States,40.8032,-124.165
L√É¬∂wenbr√É¬§u Brauerei,M√É¬ºnchen,Germany,0,0
Lwenbru Munich,Toronto,Canada,43.7379,-79.5714
Lwenbru Zrich,Zrich,Switzerland,47.3642,8.5245
Maclay and Co.,Clackmannan,United Kingdom,56.1073,-3.7528
Mad Anthony Brewing,Fort Wayne,United States,41.0677,-85.1524
Mad Crab Restaurant and Brewery,Strongsville,United States,41.3145,-81.8357
Mad River Brewing,Blue Lake,United States,40.879,-123.993
Mad River Brewing Company,Blue Lake,United States,40.8786,-123.992
Magic Hat,South Burlington,United States,44.4284,-73.2131
Magnolia Pub and Brewery,San Francisco,United States,37.7702,-122.445
Main Street Alehouse,Gresham,United States,45.5001,-122.431
Main Street Beer Company #1,Richmond,United States,37.543,-77.4691
Main Street Brewery,Corona,United States,33.8835,-117.565
Main Street Brewing,Dallas,United States,32.803,-96.7699
"Main Street Station Casino, Brewery and Hotel",Las Vegas,United States,36.1755,-115.145
Maisel Bru,Bamberg,Germany,49.8928,10.9131
Malt Shovel Brewery,Camperdown,Australia,-33.8867,151.174
Mambo Beer,Mequon,United States,43.2167,-87.924
Mammoth Brewing,Mammoth Lakes,United States,37.6484,-118.983
Manayunk Brewery and Restaurant,Philadelphia,United States,40.0236,-75.2202
Manhattan Beach Brewing,Manhattan Beach,United States,33.8844,-118.411
Marble Brewery,Albuquerque,United States,35.0928,-106.647
Margaritaville Brewing Company,Jacksonville,United States,30.3617,-81.6966
Marin Brewing,Larkspur Landing,United States,37.9479,-122.511
Marine Pub & Brewhouse,Burnaby,Canada,49.2055,-122.978
Maritime Pacific Brewing,Seattle,United States,47.6637,-122.377
Marquette Harbor Brewery and Restaurant,Marquette,United States,46.5431,-87.3929
Marshall Brewing Company,Tulsa,United States,36.152,-95.9647
Martini-Brauerei,Kassel,Germany,51.3175,9.4793
Marzoni's Brick Oven & Brewing Co,Duncansville,United States,40.4234,-78.4339
Mash House Restaurant and Brewery,Fayetteville,United States,35.0707,-78.9545
Matilda Bay Brewing,North Fremantle,Australia,-32.0232,115.754
Maui Brewing Co.,"Lahaina, Maui",United States,20.9721,-156.677
Maumee Bay Brewing,Toledo,United States,41.6432,-83.5384
McCashin's Brewery & Malthouse,Nelson,New Zealand,40.1989,-98.0673
McCoy's Public House and Brewkitchen,Kansas City,United States,39.0534,-94.5919
McGuire's Irish Pub and Brewery - Pensacola,Pensacola,United States,30.4181,-87.2024
McKenzie Brew House,Glen Mills,United States,39.8658,-75.5442
McMenamins Mill Creek,Mill Creek,United States,47.8774,-122.211
McMullen & Sons,Hertford,United Kingdom,51.7975,-0.0806
Meantime Brewing Company Limited,Greenwich,United Kingdom,51.4899,0.038
Meckatzer Lwenbru,Heimenkirch,Germany,47.6308,9.8889
Mehana Brewing,Hilo,United States,19.706,-155.069
Mendocino Brewing - Hopland,Hopland,United States,38.9734,-123.116
Mendocino Brewing - Saratoga Springs,Saratoga Springs,United States,43.0831,-73.7846
Mendocino Brewing - Ukiah,Ukiah,United States,39.1326,-123.201
Mercury Brewing Company,Ipswich,United States,42.6728,-70.844
Metropolitan Brewing,Chicago,United States,41.975,-87.674
Mia and Pia's Pizzeria and Brewhouse,Klamath Falls,United States,42.2249,-121.782
Michigan Brewing,Webberville,United States,42.6616,-84.1946
Mickey Finn's Brewery,Libertyville,United States,42.2872,-87.9538
Mickey's Brewing Co.,Milwaukee,United States,43.0389,-87.9065
Microbrouwerij Achilles,Itegem,Belgium,51.1028,4.7269
Middle Ages Brewing,Syracuse,United States,43.0508,-76.1617
Midnight Sun Brewing Co.,Anchorage,United States,61.1473,-149.844
Mikkeller,K√É¬∏benhavn,Denmark,0,0
Milagro Brewery and Grill,Bernalillo,United States,35.3,-106.551
Mill Creek Brewpub,Walla Walla,United States,46.0697,-118.336
Mill Steakhouse,Littleton,United States,39.612,-105.019
Miller Brewing,Milwaukee,United States,43.0445,-87.9626
Millrose Brewing,South Barrington,United States,42.0855,-88.1411
Millstream Brewing,Amana,United States,41.7972,-91.8652
Milly's Tavern,Manchester,United States,42.9945,-71.4674
Milwaukee Ale House,Milwaukee,United States,43.0334,-87.9093
Minhas Craft Brewery,Monroe,United States,42.6001,-89.6422
Minneapolis Town Hall Brewery,Minneapolis,United States,44.9732,-93.2479
Minnesota Brewing,Saint Paul,United States,44.9442,-93.0861
Minocqua Brewing Company,Minocqua,United States,45.8722,-89.7097
Mishawaka Brewing,Mishawaka,United States,41.6931,-86.1818
Mission Springs Brewing,Mission,Canada,49.1323,-122.343
Mississippi Brewing Co.,Utica,United States,40.687,-73.708
Moab Brewery,Moab,United States,38.5657,-109.55
Mogollon Brewing Company,Flagstaff,United States,35.2156,-111.59
Mohrenbrauerei August Huber,Dornbirn,Austria,47.4123,9.7443
Molson Breweries of Canada,Toronto,Canada,43.6706,-79.3824
Montana Brewing,Billings,United States,45.7822,-108.506
Monte Carlo Casino and Brewpub,Las Vegas,United States,36.1286,-115.171
Monteith's Brewing Co.,Greymouth,New Zealand,-42.4505,171.207
Moon River Brewing Company,Savannah,United States,32.081,-81.0915
Moonlight Brewing,Fulton,United States,38.498,-122.78
Moorhouse's Brewery (Burnley),Burnley,United Kingdom,53.7864,-2.2694
Moose's Tooth Pub and Pizzeria,Anchorage,United States,61.1902,-149.869
Moosehead Breweries,Saint John,Canada,45.2567,-66.096
Moosehead Breweries Ltd.,Saint John,Canada,45.2578,-66.0984
Moosejaw Pizza & Dells Brewing Company,Wisconsin Dells,United States,43.5907,-89.7939
Mordue Brewery,Wallsend,United Kingdom,55.0167,-1.4925
Morland and Co.,Abingdon,United Kingdom,51.6701,-1.285
Mountain Sun Pub & Brewery,Boulder,United States,40.019,-105.275
Moylan's Brewery & Restaurant,Novato,United States,38.0941,-122.557
moylans Brewing company,Novato,United States,38.1074,-122.57
Mudshark Brewing,Lake Havasu City,United States,34.4686,-114.341
Murphy's Wagon Wheel,Hastings,United States,40.5843,-98.3912
Mussel Inn,Takaka,New Zealand,-40.7658,172.705
Myanmar Brewery and Distillery,Yangon,Myanmar,16.7779,96.1679
Mythos Breweries S.A.,,Greece,0,0
Namaqua Brewing,Loveland,United States,40.3978,-105.075
Namibia Breweries,Windhoek,Namibia,-22.5589,17.0825
Nebraska Brewing Company,Papillion,United States,41.1339,-96.0307
Nelson Brewing,Nelson,Canada,49.4884,-117.29
Nethergate Brewery Co Ltd,Pentlow,United Kingdom,52.081,0.6559
New Albanian Brewing,New Albany,United States,38.3281,-85.8171
New Belgium Brewing,Fort Collins,United States,40.5929,-105.07
New Century Brewing Company,Boston,United States,42.3587,-71.0574
New Glarus Brewing Company,New Glarus,United States,42.8171,-89.6306
New Holland Brewing Company,Holland,United States,42.79,-86.1041
New River Brewing,Atlanta,United States,33.9089,-84.3056
New Road Brewhouse,Collegeville,United States,40.1857,-75.4516
New Zealand Breweries Limited,,New Zealand,0,0
Niagara Falls Brewing,Niagara Falls,Canada,43.0893,-79.11
Nicolet Brewing,Florence,United States,45.9222,-88.2518
Nikenjayamochi Kadoya Honten Co.,,Japan,0,0
Ninkasi Brewing,Eugene,United States,44.0569,-123.11
Nodding Head Brewpub,Philadelphia,United States,39.9502,-75.1666
Nor'Wester Brewery and Public House,Portland,United States,45.5235,-122.676
Nordsj Grdsbryggeri,Motala,Sweden,58.5366,15.0373
North Coast Brewing Company,Fort Bragg,United States,39.4466,-123.806
North Country Brewery,Slippery Rock,United States,41.0638,-80.0556
Northwest Brewwrks,Kirkland,United States,47.6815,-122.209
Northwoods Brewpub Grill,Eau Claire,United States,44.7776,-91.4433
N√É¬∏gne √ÉÀú - Det Kompromissl√É¬∏se Bryggeri A/S,Grimstad,Norway,0,0
O'Fallon Brewery,O'Fallon,United States,38.8058,-90.7532
O'Gara's Bar & Grill,Saint Paul,United States,44.9458,-93.167
O'Grady's Brewery and Pub #1,Arlington Heights,United States,42.0884,-87.9806
O'Hanlon's Brewing Company Ltd.,Exeter,United Kingdom,0,0
O'Hara's Brewpub and Restaurant,Saint Cloud,United States,45.5539,-94.1703
Oak Creek Brewery,Sedona,United States,34.8661,-111.796
Oaken Barrel Brewing,Greenwood,United States,39.615,-86.0901
Oakham Ales,Peterborough,United Kingdom,52.5758,-0.248
Oasis Brewery and Restaurant,Boulder,United States,40.015,-105.271
Oasis Brewery Annex,Boulder,United States,40.015,-105.271
Oconomowoc Brewing,Oconomowoc,United States,43.1117,-88.4993
Odell Brewing,Fort Collins,United States,40.5894,-105.063
Oggi's Pizza and Brewing - Vista,Vista,United States,33.2029,-117.255
Ohio Brewing,Niles,United States,41.1828,-80.7654
Okanagan Spring Brewery,Vernon,Canada,50.2613,-119.277
Old City Brewing,Austin,United States,30.2767,-97.7463
Old Dominion Brewing Co.,Dover,United States,39.154,-75.4884
Old Hat Brewery,Lawton,United States,42.1682,-85.8497
Olde Main Brewing,Ames,United States,42.0248,-93.6147
Olde Peninsula Brewpub and Restaurant,Kalamazoo,United States,42.2936,-85.5778
Oldenberg Brewery,Fort Mitchell,United States,39.0472,-84.5599
On Tap Bistro & Brewery,San Diego,United States,32.7153,-117.157
Onion Pub & Brewery,Lake Barrington,United States,42.1865,-88.1835
Onopa Brewing,Milwaukee,United States,43.0389,-87.9065
Orchard Street Brewery,Bellingham,United States,48.7596,-122.488
Oregon Trader Brewing,Albany,United States,44.6365,-123.106
Oregon Trail Brewery,Corvallis,United States,44.5613,-123.261
Oriental Brewery,,"Korea, Republic of",0,0
Original Basil T's,Red Bank,United States,40.3532,-74.0747
Orkney Brewery,Orkney,United Kingdom,59.0697,-3.3135
Orlando Brewing,Orlando,United States,28.5265,-81.3827
Orlio Organic,South Burlington,United States,44.4284,-73.2131
Oskar Blues Grill and Brew,Lyons,United States,40.2246,-105.268
Ostankinskij Pivovarennij Zavod,Moskva,Russia,55.7558,37.6176
Ottakringer Brauerei AG,Wien,Austria,48.2133,16.3229
Otter Creek Brewing & Wolaver's Organic Ales,Middlebury,United States,44.0197,-73.1693
Otto's Pub and Brewery,State College,United States,40.8098,-77.9101
Oy Sinebrychoff AB,Kerava,Finland,60.381,25.1102
Oyster Bar Bistro and Brewery,Fort Wayne,United States,41.1475,-85.1168
Pabst Brewing Company,San Antonio,United States,29.43,-98.49
Pacific Beach Brewhouse,Pacific Beach,United States,32.7978,-117.24
Pacific Coast Brewing,Oakland,United States,37.8016,-122.274
Pacific Rim Brewing,Seattle,United States,47.5143,-122.353
Palm Breweries,Steenhuffel,Belgium,50.9953,4.2835
Palmetto Brewing,Charleston,United States,32.8017,-79.9455
Panther Brewing Company,Utica,United States,43.1467,-75.1779
Paper City Brewing Company,Holyoke,United States,42.2012,-72.6104
Park City Brewing,Heber City,United States,40.496,-111.42
Paulaner,Munich,Germany,48.1391,11.5802
Pearl Street Brewery,La Crosse,United States,43.8344,-91.2362
Pelican Pub & Brewery,Pacific City,United States,45.2152,-123.97
Penn Brewery,Pittsburgh,United States,40.4569,-79.9915
Pennichuck Brewing Company,Milford,United States,42.8368,-71.6626
Pennsylvania Brewing,Pittsburgh,United States,40.4569,-79.9915
Pete's Brewing,San Antonio,United States,29.5761,-98.4772
Pete's Place,Krebs,United States,34.9251,-95.7253
PH Woods Diner and Brewery,Moreno Valley,United States,33.9176,-117.26
Philadelphia Brewing Co,Philadelphia,United States,39.9827,-75.1275
Phoenix Beverages Ltd,Pont Fer,Mauritius,-20.2738,57.4971
Piece,Chicago,United States,41.9104,-87.6761
Pike Pub and Brewery,Seattle,United States,47.6081,-122.34
Pinehurst Village Brewery,Aberdeen,United States,35.1315,-79.4295
Pinnacle Peak Patio Steakhouse & Microbrewery,Scottsdale,United States,33.7268,-111.853
Pint's Pub Brewery and Freehouse,Denver,United States,39.7369,-104.991
Pivara Skopje,Skopje,"Macedonia, the Former Yugoslav Republic of",42.0038,21.4522
Pivovar Herold Beznice,Beznice,Czech Republic,0,0
Pivovar Hradec Krlov,Hradec Krlov,Czech Republic,50.2094,15.8326
Pivovar Klter Hradit,Klter Hradit nad Jizerou,Czech Republic,0,0
Pivovar Nchod,Nchod,Czech Republic,0,0
Pivovar Pardubice a.s.,Pardubice,Czech Republic,50.0355,15.762
Pivovar Podkov,Praha,Czech Republic,50.0878,14.4205
Pivovar Starobrno,Brno,Czech Republic,49.1911,16.5918
Pivovar v Hurbanove,Hurbanovo,Slovakia,47.8809,18.1972
Pivovar Velk Popovice,Velk Popovice,Czech Republic,49.9225,14.6361
Pivovary Staropramen,Praha,Czech Republic,50.0685,14.4067
Pivzavod Baltika /,Sankt-Peterburg,Russia,59.939,30.3158
Pizza Beer,St Charles,United States,41.9455,-88.4507
Pizza Port Brewing - Solana Beach,Solana Beach,United States,32.9908,-117.272
Pizzeria Uno Chicago Grill & Brewery,Metuchen,United States,37.2283,-77.3903
Platte Valley Brewing,Kearney,United States,40.6954,-99.0812
Pleasanton Main Street Brewery,Pleasanton,United States,37.6645,-121.873
Plzesk Prazdroj,Plze,Czech Republic,49.7466,13.3861
Plzesk Prazdroj Pivovar Radegast,Noovice,Czech Republic,0,0
Pokka Beer Works,Nagoya,Japan,35.1814,136.906
Pony Express Brewing,Olathe,United States,38.8814,-94.8191
Port Brewing Company,San Marcos,United States,33.1406,-117.15
Port Washington Brewing,Port Washington,United States,43.3872,-87.8756
Porterhouse Restaurant and Brewpub,Lahaska,United States,40.3341,-75.012
Portland Brewing,Portland,United States,45.5415,-122.713
Portsmouth Brewery,Portsmouth,United States,43.0781,-70.7575
Prairie Rock Brewing - Elgin,Elgin,United States,42.0347,-88.2819
Prescott Brewing Company,Prescott,United States,34.542,-112.47
Pripps Ringnes Bryggerier,Bromma,Sweden,60.4877,9.1885
Privat-Brauerei Schmucker Ober-Mossau KG,Mossautal,Germany,49.6747,8.925
Privatbrauerei Bolten,Korschenbroich,Germany,51.1833,6.4993
Privatbrauerei Erdinger Weissbru,Erding,Germany,48.3153,11.8911
Privatbrauerei Frankenheim,Dsseldorf,Germany,51.2292,6.7925
Privatbrauerei Gaffel,Kln,Germany,50.9465,6.9563
Privatbrauerei Hofmhl,Eichsttt,Germany,0,0
Private Weissbierbrauerei G. Schneider & Sohn GmbH,Kelheim,Germany,48.9175,11.8735
Privater Brauereigasthof Greifenklau,Bamberg,Germany,49.8851,10.8823
Pug Ryan's Steakhouse and Brewery,Dillon,United States,39.6282,-106.047
Pugsley Brewing LLC,Portland,United States,43.6615,-70.2553
Pumphouse Brewery & Restaurant,Longmont,United States,40.1688,-105.102
Pumphouse Pizza and Brewing,Lake Delton,United States,43.6011,-89.7937
"Pyramid Alehouse, Brewery and Restaurant - Berkeley",Berkeley,United States,47.5917,-122.335
"Pyramid Alehouse, Brewery and Restaurant - Seattle",Seattle,United States,0,0
Pyramid Ales Brewery,Seattle,United States,47.5924,-122.334
Qingdao Brewery,Qingdao,China,36.0663,120.383
Quigleys,Pawleys Island,United States,33.4905,-79.116
R&B; Brewing,Vancouver,Canada,49.2673,-123.103
Raccoon Lodge and Brewpub / Cascade Brewing,Portland,United States,45.4856,-122.754
Raccoon River Brewing,Des Moines,United States,41.5841,-93.6296
Radeberger Exportbierbrauerei,Radeberg,Germany,51.1148,13.915
Rahr & Sons Brewing Company,Fortworth,United States,32.7366,-97.3274
Rail House Restaurant and Brewpub,Marinette,United States,45.0851,-87.6544
Railway Brewing,Anchorage,United States,61.2181,-149.9
Ramapo Valley Brewery,Hillburn,United States,41.1151,-74.147
Randy's Fun Hunters Brewery Restaurant and Banquet Center,Whitewater,United States,42.832,-88.714
RCH Brewery,Weston-super-Mare,United Kingdom,51.3723,-2.8773
Real Ale Brewing Company,Blanco,United States,30.113,-98.4156
ReaperAle,Foothill Ranch,United States,33.6864,-117.66
Red Kettle Brewing,Encinitas,United States,33.037,-117.292
Red Lodge Ales,Red Lodge,United States,45.1913,-109.247
Red Oak Brewery,Whitsett,United States,36.0613,-79.5695
Red Star Brewery & Grille,Greensburg,United States,40.3044,-79.5471
RedFish New Orleans Brewhouse,Boulder,United States,40.0187,-105.279
Redhook Ale Brewery,Seattle,United States,47.6062,-122.332
Remington Watson Smith Brewing,Waukesha,United States,43.0117,-88.2315
Restaurant Isarbru,Pullach im Isartal,Germany,48.0708,11.5311
Revolution Brewing LLC,Chicago,United States,41.9234,-87.6982
Richbrau Brewing Company,Richmond,United States,37.5356,-77.4338
Ridgeway Brewing,South Stoke,United Kingdom,51.5462,-1.1355
Rio Salado Brewing,Tempe,United States,33.4148,-111.909
River Horse Brewing Company,Lambertville,United States,40.3688,-74.9477
River West Brewing,Chicago,United States,41.85,-87.6501
Rivers Effortless Dining,Salt Lake City,United States,40.638,-111.69
Rivertowne Pour House,Monroeville,United States,40.4465,-79.7642
Rock Art Brewery,Morrisville,United States,44.5693,-72.6034
Rock Bottom Restaurant & Brewery - Chicago,Chicago,United States,41.8915,-87.6284
Rock Bottom Restaurant & Brewery - Denver,Denver,United States,39.7472,-104.995
Rock Bottom Restaurant & Brewery - Milwaukee,Milwaukee,United States,43.0399,-87.9117
Rock Bottom Restaurant & Brewery - Minneapolis,Minneapolis,United States,44.9765,-93.2747
Rock Bottom Restaurant & Brewery - San Jose,Campbell,United States,37.2886,-121.933
Rock Bottom Restaurant & Brewery - South Denver,Englewood,United States,39.5678,-104.874
Rocky River Brewing,Rocky River,United States,41.4623,-81.856
Rockyard Brewing,Castle Rock,United States,39.4091,-104.87
Roffey Brewery,Holland,United States,42.7875,-86.1089
Rogue Ales,Newport,United States,44.6202,-124.052
ronald mengerink,baarle-hertog,Belgium,51.4421,4.9232
Roost Brewery,Campbell,United States,37.2869,-121.946
Roots Organic Brewing,Portland,United States,45.5118,-122.659
Ross Valley Brewing,Fairfax,United States,37.9871,-122.589
Rothaus Brauerei,Hartford,United States,43.3178,-88.379
Route 66 Brewery,Saint Louis,United States,38.647,-90.225
Routh Street Brewery and Grille,Dallas,United States,32.789,-96.7989
Rowland's Calumet Brewery,Chilton,United States,44.0291,-88.1629
Roy Pitz Brewing Company,Chambersburg,United States,39.939,-77.6566
Rubicon Brewing,Sacramento,United States,38.5731,-121.481
Ruppaner-Brauerei,Konstanz,Germany,47.6855,9.208
Rush River Brewing,River Falls,United States,44.8902,-92.6378
Russell Brewing,Surrey,Canada,0,0
Russian River Brewing,Santa Rosa,United States,38.4418,-122.712
S.A. Damm,Barcelona,Spain,41.3879,2.1699
SA Brain & Co. Ltd.,Cardiff,United Kingdom,51.4736,-3.179
"Sabmiller India,",Bangalore,India,12.9683,77.657
Sacramento Brewing Company,Sacramento,United States,38.6191,-121.4
Saint Arnold Brewing,Houston,United States,29.8123,-95.4675
Saint Louis Brewery / Schlafy Tap Room,Saint Louis,United States,38.633,-90.21
Saint Somewhere Brewing Company,Tarpon Springs,United States,28.1646,-82.7717
Saku lletehas,Saku,Estonia,59.3014,24.6679
Salado Creek Brewing Company,San Antonio,United States,29.4241,-98.4936
Salopian Brewery,Shrewsbury,United Kingdom,52.7069,-2.787
Salt Lake Brewing - Squatters,Salt Lake City,United States,40.7626,-111.895
"Sam Choy's Breakfast, Lunch, Crab & Big Aloha Brewery",Honolulu,United States,21.3069,-157.858
Samuel Smith Old Brewery (Tadcaster),Tadcaster,United Kingdom,53.8834,-1.2625
San Diego Brewing,San Diego,United States,32.7922,-117.099
San Marcos Brewery & Grill,San Marcos,United States,33.1345,-117.191
San Miguel Corporation,Manila,Philippines,14.5833,120.967
Sand Creek Brewing Company,Black River Falls,United States,44.2929,-90.8511
SandLot Brewery at Coors Field,Denver,United States,39.7557,-104.993
Sanford's Grub and Pub,Sheridan,United States,44.8007,-106.956
Santa Barbara Brewing,Santa Barbara,United States,34.4166,-119.696
Santa Cruz Brewing,Santa Cruz,United States,36.9741,-122.031
Santa Fe Brewing Company,Santa Fe,United States,35.5966,-106.052
Santa Rosa Brewing,Santa Rosa,United States,38.4405,-122.714
Sapporo Breweries - Chuo,Tokyo,Japan,0,0
Sarah Hughes Brewery,Dudley,United Kingdom,52.5435,-2.1156
Saxer Brewing,Lake Oswego,United States,45.4207,-122.671
Scharer's Little Brewery,Picton,Australia,-34.1855,150.607
Schlobrauerei Reckendorf,Reckendorf,Germany,50.0224,10.83
Schloss Eggenberg,Vorchdorf,Austria,47.9904,13.9238
Schlossbru,Dornbirn,Austria,47.4097,9.7514
Sch√É¬∂fferhofer,Frankfurt/Main,Germany,0,0
Schooner Brewery,Dallas,United States,32.803,-96.7699
Schooner's Grille & Brewery,Antioch,United States,37.9669,-121.783
Schussenrieder Erlebnisbrauerei,Bad Schussenried,Germany,48.004,9.6584
Scotch Irish Brewing,Carleton Place,Canada,45.1279,-76.13
Scottish & Newcastle Breweries,Newcastle-upon-Tyne,United Kingdom,40.8918,-76.7975
Scottish & Newcastle PLC,Edinburgh,United Kingdom,55.9465,-3.2485
Scuttlebutt Brewing,Everett,United States,47.9975,-122.214
Sea Dog Brewing Company,Bangor,United States,44.7974,-68.77
Seabright Brewery,Santa Cruz,United States,36.9676,-122.008
Second Street Brewery,Santa Fe,United States,35.6631,-105.966
Selin's Grove Brewing Co.,Selinsgrove,United States,40.801,-76.8614
Sequoia Brewing Conoabt,Fresno,United States,36.7582,-119.802
Shaftebury Brewing,Delta,Canada,49.1487,-122.912
Sharktooth Brewing,Kahului,United States,20.8947,-156.47
Shepherd Neame,Faversham,United Kingdom,51.3169,0.8921
Sherlock's Home,Minnetonka,United States,44.9133,-93.5033
Ship Inn Brewpub,Milford,United States,40.5684,-75.0954
Shipwrecked Brew Pub,Egg Harbor,United States,45.0495,-87.2802
Shipyard Brewing - Portland,Portland,United States,43.6619,-70.2489
Shmaltz Brewing Company,San Francisco,United States,37.7749,-122.419
Shmaltz Enterprises,San Francisco,United States,37.7481,-122.419
Short's Brewing Company,Bellaire,United States,44.9763,-85.2104
Sierra Leone Brewery,Freetown,Sierra Leone,8.4841,-13.2287
Sierra Madre Brewing Co.,Monterrey,Mexico,25.6811,-100.363
Sierra Nevada Brewing Co.,Chico,United States,39.7246,-121.816
Siletz Roadhouse & Brewery,Siletz,United States,44.722,-123.918
Silver Gulch Brewing Company,Fox,United States,64.9583,-147.622
Silverado Brewing,Saint Helena,United States,38.5243,-122.497
Simmerberg Brusttt und Taferne,Simmerberg,Germany,47.5814,9.9191
Sioux Falls Brewing,Sioux Falls,United States,43.55,-96.7003
Six Rivers Brewery,McKinleyville,United States,40.9491,-124.102
Sixpoint Craft Ales,Brooklyn,United States,40.674,-74.0118
Ska Brewing Company,Durango,United States,0,0
Skagit River Brewing,Mount Vernon,United States,48.4192,-122.335
Skol Breweries,Maharashtra,India,18.88,72.94
Slab City Brewing,Bonduel,United States,44.7403,-88.4448
Sleeman Brewing & Malting,Guelph,Canada,43.487,-80.2068
Sleeping Lady Brewing Company,Anchorage,United States,61.2196,-149.896
Slottskllans Bryggeri,Uppsala,Sweden,59.8544,17.6627
Sly Fox Brewhouse and Eatery - Phoenixville,Phoenixville,United States,40.1298,-75.5499
Sly Fox Brewhouse and Eatery - Royersford,Royersford,United States,40.1943,-75.534
Smoky Mountain Brewing,Knoxville,United States,35.9657,-83.9181
Smuttynose Brewing Co.,Portsmouth,United States,43.0325,-70.7948
Snake River Brewing,Jackson,United States,43.4768,-110.765
Snipes Mountain Microbrewery & Restaurant,Sunnyside,United States,46.3284,-120.008
Snowshoe Brewing - Sonora,Sonora,United States,37.9841,-120.382
Sockeye,Boise,United States,43.6326,-116.275
Socorro Springs Brewing,Socorro,United States,34.0701,-106.893
Sonoran Brewing Company,Scottsdale,United States,33.7268,-111.853
South Australian Brewing,Adelaide,Australia,-34.9111,138.575
South County Brewing Co.,Fawn Grove,United States,39.7323,-76.4496
South Shore Brewery,Ashland,United States,46.5872,-90.8921
Southampton Publick House,Southampton,United States,40.8903,-72.3927
Southend Brewery and Smokehouse - Charleston,Charleston,United States,32.7785,-79.9273
Southern Star Brewing Company,Conroe,United States,30.3489,-95.4427
Southern Tier Brewing Co,Lakewood,United States,42.1008,-79.3357
357,,Sealand,0,0
Spanish Peaks Brewing,Polson,United States,47.6959,-114.176
Spaten-Franziskaner-Br√É¬§u,M√É¬ºnchen,Germany,0,0
Speakeasy Ales and Lagers,San Francisco,United States,37.7387,-122.381
Spilker Ales,Cortland,United States,40.5058,-96.707
Spoetzl Brewery,Shiner,United States,29.426,-97.1607
Sports City Cafe & Brewery,La Jolla,United States,33.8575,-117.876
Sprecher Brewing,Glendale,United States,43.1,-87.9198
Spring House Brewing Company,Conestoga,United States,39.9525,-76.3295
Springfield Brewing,Springfield,United States,37.2079,-93.2955
St John Brewers,St. John,United States,18.3368,-64.7281
St Peter's Brewery,Bungay,United Kingdom,36.7282,-76.5836
St. Austell Brewery,St. Austell,United Kingdom,50.3416,-4.7883
St. Francis Abbey Brewery,Kilkenny,Ireland,52.6538,-7.248
St. GeorgenBru Modschiedler KG,Buttenheim,Germany,49.802,11.0324
St. James's Gate Brewery,Dublin,Ireland,53.3441,-6.2675
St. Stan's Brewing Co.,Modesto,United States,37.6417,-121.004
Staatliches Hofbr√É¬§uhaus in M√É¬ºnchen,M√É¬ºnchen,Germany,0,0
Stadsbrouwerij De Hemel,Nijmegen,Netherlands,51.8486,5.8639
Standing Stone Brewing Company,Ashland,United States,42.1976,-122.715
Steam Whistle Brewery,Toronto,Canada,43.6414,-79.3869
Steamworks,Vancouver,Canada,49.2849,-123.11
Steamworks Brewing - Durango,Durango,United States,37.2724,-107.88
Steel Brewing,Longview,United States,32.5007,-94.7405
Steinfels Back & Brau,Zrich,Switzerland,47.369,8.538
Steve and Clark's Brew Pub and Sausage Co. #2,Durham,United States,35.994,-78.8986
Stevens Point Brewery,Stevens Point,United States,44.5104,-89.5734
Stewart's Brewing,Bear,United States,39.6318,-75.6628
Stieglbrauerei zu Salzburg GmbH,Salzburg,Austria,47.8005,13.0444
Stillwater Artisanal Ales,Baltimore,United States,39.2904,-76.6122
Stone Brewing Co.,Escondido,United States,33.1157,-117.12
Stone Cellar Brewpub & Restaurant,Appleton,United States,44.2536,-88.4037
Stone City Brewing,Solon,United States,41.8072,-91.4941
Stone Coast Brewing - Portland,Portland,United States,43.71,-70.305
Stonecutters Brewhouse,Barre,United States,44.1972,-72.5019
Stoney Creek Brewing Company,Detroit,United States,42.3372,-83.0186
Storm Brewing,Vancouver,Canada,49.2821,-123.07
Stoudt's Brewery,Adamstown,United States,40.2369,-76.072
Stout Brothers Public House,Milwaukee,United States,43.0389,-87.9065
Strangford Lough Brewing Company Ltd,Killyleagh,Ireland,54.3906,-5.6548
Straub Brewery,St. Mary's,United States,41.4277,-78.5539
Stroh Brewery Company,Tampa,United States,27.9494,-82.4651
Sturgeon Bay Brewing,Sturgeon Bay,United States,44.8342,-87.377
Stuttgarter Hofbru,Stuttgart,Germany,0,0
Sudwerk Privatbrauerei Hbsch,Davis,United States,38.5472,-121.726
Sullivan's Black Forest Brew Haus & Grill,Frankenmuth,United States,43.3152,-83.7314
Summit Brewing,Saint Paul,United States,44.9139,-93.1396
Surly Brewing,Brooklyn Center,United States,45.0429,-93.3246
Swan Brewery,Canning Vale,Australia,-32.0638,115.912
Sweet Water Tavern and Brewery,Sterling,United States,39.0324,-77.4097
Sweetwater Brewing - Atlanta,Atlanta,United States,33.8087,-84.3813
Sweetwater Brewing - Casper,Casper,United States,42.8666,-106.313
Sweetwater Tavern - Centreville,Centreville,United States,38.8289,-77.4393
Switchback Brewing Co,Burlington,United States,43.3906,-79.8049
T&R; Theakston,Ripon,United Kingdom,0,0
"T-Bonz Gill, Grill and Brewery",Mount Pleasant,United States,32.8091,-79.875
Tabernash Brewing,Longmont,United States,40.1672,-105.102
Tablerock,Boise,United States,43.6113,-116.206
Tailgate Beer,San Diego,United States,32.7732,-117.055
Taiwan Tobacco and Wine Monopoly Board,Taipei,"Taiwan, Province of China",25.026,121.472
Tampa Bay Brewing,Tampa,United States,27.9607,-82.4433
Tap Room Brewing Company,La Crosse,United States,43.8014,-91.2396
Taylor Brewing,Lombard,United States,41.8358,-88.0091
Taylor's Crossing Brewing,North Vancouver,Canada,49.3238,-123.102
Taylor's Restaurant and Brewery,San Diego,United States,32.7153,-117.157
Tempo,,Israel,0,0
Tenaya Creek Restaurant and Brewery,Las Vegas,United States,36.2154,-115.251
Tennent Caledonian Brewery,Glasgow,United Kingdom,55.8593,-4.2324
Terminal Gravity Brewing,Enterprise,United States,45.4192,-117.272
Terrapin Beer Company,Athens,United States,33.9459,-83.4105
The Alchemist,Waterbury,United States,44.3372,-72.756
The Blind Bat Brewery LLC,Centerport,United States,40.8959,-73.3811
The Bruery,Placentia,United States,33.8614,-117.88
The Cambridge House,Granby,United States,41.9658,-72.793
The Church Brew Works,Pittsburgh,United States,40.4624,-79.9645
The Hop Yard,San Ramon,United States,37.7839,-122.001
The Livery,Benton Harbor,United States,42.1185,-86.4537
The Lost Abbey,San Marcos,United States,33.1406,-117.15
The Narragansett Brewing Company,Providence,United States,41.819,-71.4097
The Round Barn Winery & Brewery,Baroda,United States,41.9211,-86.4583
Third Street Ale Works,Santa Rosa,United States,38.4398,-122.713
Thirsty Dog Brewing,Akron,United States,41.0689,-81.5172
ThirstyBear Brewing,San Francisco,United States,37.7855,-122.4
Thomas Creek Brewery,Greenville,United States,34.7968,-82.4245
Thomas Hooker Brewing,Bloomfield,United States,41.8087,-72.7108
Thomas Kemper Brewing,Seattle,United States,47.5924,-122.334
Three Floyds Brewing,Munster,United States,41.5354,-87.5158
Three Needs Brewery and Taproom,Burlington,United States,44.4771,-73.2115
Thunder Canyon Brewery,Tucson,United States,32.3407,-111.015
Thunderhead Brewery,Kearney,United States,40.6966,-99.0815
Thunderhead Brewery #2,Grand Island,United States,40.9259,-98.3397
Tied House Cafe & Brewery - San Jose,San Jose,United States,37.3362,-121.894
Timmermans,Itterbeek,Belgium,50.8399,4.2475
Tin Whistle Brewing,Penticton,Canada,49.4944,-119.61
Titletown Brewing,Green Bay,United States,44.52,-88.0173
Tivoli Brewing,Denver,United States,39.7392,-104.985
Tollemache and Cobbold Brewery,Ipswich,United Kingdom,52.0593,1.1557
Tommyknocker Brewery and Pub,Idaho Springs,United States,39.7418,-105.518
Tomos Watkin and Sons Ltd.,Swansea,United Kingdom,51.6666,-3.9443
Tongerlo,Westerlo,Belgium,51.0873,4.9178
Tooheys,Sydney,Australia,-33.8501,151.045
Tooth's,Sydney,Australia,-33.8671,151.207
Top of the Hill Restaurant and Brewery,Chapel Hill,United States,35.9132,-79.0558
Trade Winds Brewing,Wailuku,United States,20.8911,-156.505
Traffic Jam and Snug,Detroit,United States,42.351,-83.0665
Trailhead Brewing Company,Saint Charles,United States,38.7745,-90.484
Trap Rock Restaurant and Brewery,Berkeley Heights,United States,40.6892,-74.4349
Traquair House Brewery,Innerleithen,United Kingdom,55.619,-3.0636
Trinity Brewing Company,Colorado Springs,United States,38.8967,-104.855
Triple Rock Brewery,Berkeley,United States,37.8734,-122.269
Triumph Brewing of New Hope,New Hope,United States,40.3659,-74.9544
Triumph Brewing of Princeton,Princeton,United States,40.3507,-74.6583
Troegs Brewing,Harrisburg,United States,40.2559,-76.8715
"Tropical Beverage (International) Co., Ltd",Bangkok,Thailand,13.7234,100.476
Trout River Brewing,Lyndonville,United States,44.5203,-72.0014
Tsingtao,Qingdao,China,36.0663,120.383
Tucher Bru,Nrnberg,Germany,49.4643,11.0847
Tui Brewery,Mangatainoka,New Zealand,0,0
Tunner's Guild Brewing Systems,Saint Paul,United States,44.9442,-93.0861
Tuppers Hop Pocket Ale,Bethesda,United States,38.9735,-77.1272
Tustin Brewing,Tustin,United States,33.7496,-117.812
Twin Ports Brewing,Superior,United States,46.7208,-92.1041
Twin Rivers Brewing,Monroe,United States,47.8559,-121.971
Twisted Pine Brewing Company,Boulder,United States,40.0201,-105.251
Two Brothers Brewing,Warrenville,United States,41.8206,-88.2068
Two Dogs Beverage Company,Manhasset,United States,40.7964,-73.699
TwoRows Restaurant & Brewery - Dallas,Dallas,United States,32.8545,-96.7687
Tyranena Brewing,Lake Mills,United States,43.0862,-88.8967
Tyskie Browary Ksi√Ñ‚Ä¶√Ö¬º√Ñ‚Ñ¢ce,Tychy,Poland,0,0
Uerige Obergrige Hausbrauerei,Dsseldorf,Germany,51.225,6.7722
Uinta Brewing Compnay,Salt Lake City,United States,40.7326,-111.954
Ukiah Brewing,Ukiah,United States,39.1498,-123.208
Umpqua Brewing,Roseburg,United States,43.2165,-123.342
Unibroue,Chambly,Canada,45.4416,-73.2595
Unicer,,Portugal,0,0
Union Barrel Works,Reamstown,United States,40.2118,-76.1232
Union Colony Brewery,Greeley,United States,40.4233,-104.709
Unionsbru Haidhausen,Mnchen,Germany,48.1355,11.6009
United Breweries Limited,Bangalore,India,12.9689,77.5946
Upland Brewing,Bloomington,United States,39.1733,-86.5369
Upper Mississippi Brewing,Clinton,United States,41.8445,-90.1887
Upstream Brewing Company at Legacy,Omaha,United States,41.2331,-96.1811
Upstream Brewing Old Market,Omaha,United States,41.2553,-95.9306
Ushers of Trowbridge,Trowbridge,United Kingdom,51.3201,-2.208
Utah Brewers Cooperative,Salt Lake City,United States,40.7322,-111.9
Utenos Alus,Utena,Lithuania,0,0
Valley Brewing Company,Stockton,United States,37.9551,-121.322
Valley Forge Brewing,Wayne,United States,40.0439,-75.3881
Van Honsebrouch,Ingelmunster,Belgium,50.9205,3.2541
Vancouver Island Brewing,Victoria,Canada,48.4344,-123.367
Vermont Pub & Brewery,Burlington,United States,44.4773,-73.2144
Vetter√Ø¬ø¬Ωs Alt Heidelberger Brauhaus,Heidelberg,Germany,0,0
Victory Brewing,Downingtown,United States,40.0061,-75.6942
Viking Brewing,Dallas,United States,45.2585,-91.8181
Vintage 50 Restaurant and Brew Lounge,Leesburg,United States,39.1126,-77.5537
Vivungs Bryggeri,Romakloster,Sweden,57.4985,18.459
"Voodoo Brewing Co.,LLC",Meadville,United States,41.6372,-80.1549
vyturio Alaus Darykla,Klaipda,Lithuania,0,0
Wachusetts Brewing Company,Westminster,United States,42.5586,-71.8715
Wagner Valley Brewing,Lodi,United States,42.5739,-76.8582
Wainwright Brewing,Pittsburgh,United States,40.4616,-79.9653
Walking Man Brewery,Stevenson,United States,45.6922,-121.885
Walldorff Brew Pub,Hastings,United States,42.6488,-85.2875
Warsteiner Brauerei,Warstein,Germany,51.4416,8.3519
Watch City Brewing,Waltham,United States,42.3718,-71.2367
Water Street Brewery,Milwaukee,United States,43.0448,-87.9114
Water Street Lake Country,Delafield,United States,43.0525,-88.3663
Water Tower Brewing,Eden Prairie,United States,44.8652,-93.4095
Watney Brewery,London,United Kingdom,51.5002,-0.1262
Watson Brothers Brewhouse,Blue Ash,United States,39.232,-84.3783
Wdi-Bru-Huus,Wdenswil,Switzerland,47.2311,8.6691
Weeping Radish Restaurant and Brewery - Manteo,Manteo,United States,35.8859,-75.6697
Weinkeller Brewery - Berwyn,Berwyn,United States,41.8506,-87.7937
Weissbierbrauerei Hopf,Miesbach,Germany,47.794,11.8311
Wells and (&) Youngs Brewing Company Ltd.,,United Kingdom,0,0
Wernesgr√É¬ºner Brauerei,Steinberg/Sachsen,Germany,0,0
Wernesgr√É¬ºner Brauerei GmbH,"Steinberg-Wernesgr√É¬ºn, Germany",Germany,0,0
Western Reserve Brewing,Cleveland,United States,41.4995,-81.6954
Weyerbacher Brewing Company,Easton,United States,40.6732,-75.2249
WH Brakspear & Sons,Henley-on-Thames,United Kingdom,51.5375,-0.9046
Wharf Rat,Baltimore,United States,39.2866,-76.6182
Whim Ales,Buxton,United Kingdom,53.1407,-1.8084
Whitbread Beer Company,Luton,United Kingdom,52.1357,-0.468
White Marsh Brewing Company,White Marsh,United States,39.3722,-76.4638
White Oak Cider,Newberg,United States,45.3498,-123.073
White Winter Winery,Iron River,United States,47.3812,-94.6669
Whitstable Brewery,Maidstone,United Kingdom,51.2047,0.6813
Widmer Brothers Brewing,Portland,United States,45.5408,-122.676
Wild Duck Brewing,Eugene,United States,44.0521,-123.087
"Wild Goose Brewery, LLC",Fredrick,United States,39.3628,-77.4265
Wild Onion Brewing,Lake Barrington,United States,42.2108,-88.1652
Wild River Brewing and Pizza - Cave Junction,Cave Junction,United States,42.1707,-123.645
William Kuether Brewing,Clear Lake,United States,45.2519,-92.2713
Williams Brothers Brewing Company,Alloa,United Kingdom,56.1163,-3.7954
Willoughby Brewing,Willoughby,United States,41.6416,-81.4066
Wilmington Brewing,Wilmington,United States,34.2257,-77.9447
Wisconsin Brewing,Wauwatosa,United States,43.0495,-88.0076
Wolf Pack Brewing,West Yellowstone,United States,44.6584,-111.1
Wolf Tongue Brewery,Nederland,United States,39.9619,-105.51
Woodforde's Norfolk Ales,Norwich,United Kingdom,52.6842,1.449
Wrzburger Hofbru AG,Wrzburg,Germany,49.792,9.915
Wychwood Brewery,Witney,United Kingdom,51.7523,-1.2558
Wychwood Brewery Company Ltd,,United Kingdom,0,0
Wyder's Cider,Calgary,Canada,51.034,-114.083
Wye Valley Brewery,Stoke Lacy,United Kingdom,52.1496,-2.5507
Wynkoop Brewing,Denver,United States,39.7535,-104.998
Yakima Brewing and Malting / Grant's Ales,Yakima,United States,46.6021,-120.506
Yaletown Brewing,Vancouver,Canada,49.2755,-123.121
Yamhill Brewing,Portland,United States,45.5235,-122.676
Yards Brewing,Philadelphia,United States,39.9831,-75.1274
Marshall Wharf Brewing Company,Belfast,United States,0,0
Youngs & Company Brewery,London,England,51.4611,-0.1966
Zea Rotisserie and Brewery,New Orleans,United States,29.9386,-90.076
Yegua Creek Brewing - Dallas,Dallas,United States,32.821,-96.7848
Yuengling & Son Brewing,Pottsville,United States,40.7,-76.1747
York Brewery,York,England,53.9571,-1.0905
Yellowstone Valley Brewing,Billings,United States,45.7861,-108.498
Yazoo Brewing,Nashville,United States,36.151,-86.7821
Yuksom Breweries,Malli,India,0,0
Baxter Brewing,Lewiston,United States,44.1004,-70.2148
Aviator Brewing Company,Fuquay Varina,United States,35.6197,-78.8085
Aspen Brewing Company,Aspen,United States,0,0
Tallgrass Brewing Co.,Manhattan,United States,0,0
Half Acre Beer Company,Chicago,United States,0,0
New Jersey Beer Company,North Bergen,United States,0,0
FINNEGANS,Minneapolis,United States,0,0
Half Pints Brewing Company,Winnipeg,Canada,0,0
Warwick Valley Wine Co.,Warwick,United States,0,0
The Nook Brewhouse,,United Kingdom,0,0
The St. Louis Brewrey,St. Louis,United States,0,0
Baltika Breweries,St. Petersburg,Russia,0,0
Baltika Breweries,St. Petersburg,Russia,0,0
Catawba Valley Brewing Company,Glen Alpine,United States,0,0
Walnut Brewery,Boulder,United States,0,0
Columbus Brewing Company,Columbus,United States,0,0
Oso,Plover,United States,0,0
Element Brewing Company,Millers Falls,United States,0,0
Cains,Liverpool,United Kingdom,0,0
Wedge Brewery,Asheville,United States,0,0
Black Creek Historic Brewery,Toronto,Canada,0,0
Hertog Jan,Arcen,Netherlands,0,0
Brewery Vivant,Grand Rapids,United States,0,0
Oakshire,Eugene,United States,0,0
Oakshire,Eugene,United States,0,0
Abhi Brewery,,India,0,0
Brasserie du Bouffay,Carquefou,France,0,0